{
"type": "FeatureCollection",
"name": "asistencia_monitoreo_reforestacion_consumo",
"xy_coordinate_resolution": 1e-08,
"features": [
{ "type": "Feature", "properties": { "globalid": "c1c0c28d-06dd-45b8-bdd9-a3e8221fb367", "nombre_gua": "Jose Octavio Xitamul Recinos", "municipio_": "San José Chacaya", "region": "Altiplano Central", "area_prote": "rumcla", "area_pro_1": null, "municipio": "San José Chacaya", "apoyo_fuer": "si", "apoyo_fu_1": "Lugar conocido como chocamposanto del municipio de santa catarina ixtahuacan", "nombre_are": "Caserio paqui del municipio de santa catarina ixtahuacan", "tipo_refor": "compromiso_consumo", "area_refor": 2520.0, "especies": "encino,pino,aliso", "especie_ot": null, "fecha": "2025-09-17T00:00:00", "hora": "10:10", "observacio": "Dicha medida que se coloco no es en hectarias si no en metros cuadrados y dicha persona ya cumplio con el compromiso de reforestacion", "CreationDa": "2025-09-18T00:00:00", "Creator": null, "EditDate": "2025-09-18T00:00:00", "Editor": null, "consumo_fu": null, "guardarecu": null, "municipio1": null, "municipi_1": null, "cant_pino": 0, "cant_cipre": 0, "cant_aliso": 0, "cant_encin": 0, "cant_otro": 0 }, "geometry": { "type": "Point", "coordinates": [ -91.24502317, 14.821439 ] } },
{ "type": "Feature", "properties": { "globalid": "894eea61-577e-4a96-b4c6-663e4ec85e59", "nombre_gua": "Diego Chacom Soben", "municipio_": "Santa Clara La Laguna", "region": "Altiplano Central", "area_prote": "rumcla", "area_pro_1": null, "municipio": "Santa Clara La Laguna", "apoyo_fuer": "no", "apoyo_fu_1": null, "nombre_are": null, "tipo_refor": "compromiso_consumo", "area_refor": 0.2, "especies": "pino,aliso", "especie_ot": null, "fecha": "2025-09-18T00:00:00", "hora": "09:56", "observacio": null, "CreationDa": "2025-09-19T00:00:00", "Creator": null, "EditDate": "2025-09-19T00:00:00", "Editor": null, "consumo_fu": null, "guardarecu": null, "municipio1": null, "municipi_1": null, "cant_pino": 0, "cant_cipre": 0, "cant_aliso": 0, "cant_encin": 0, "cant_otro": 0 }, "geometry": { "type": "Point", "coordinates": [ -91.30548501, 14.76220833 ] } },
{ "type": "Feature", "properties": { "globalid": "cf982289-f5be-4cb9-85ac-0c6dea50a211", "nombre_gua": "Diego Chacom Soben", "municipio_": "Santa Clara La Laguna", "region": "Altiplano Central", "area_prote": "rumcla", "area_pro_1": null, "municipio": "Santa Clara La Laguna", "apoyo_fuer": "no", "apoyo_fu_1": null, "nombre_are": "Chuijuyub", "tipo_refor": "compromiso_consumo", "area_refor": 0.1, "especies": "pino", "especie_ot": null, "fecha": "2025-09-18T00:00:00", "hora": "10:21", "observacio": "En lugar se encotro la cantidad de 28 arbolitos sembrados de especie pino.", "CreationDa": "2025-09-19T00:00:00", "Creator": null, "EditDate": "2025-09-19T00:00:00", "Editor": null, "consumo_fu": null, "guardarecu": null, "municipio1": null, "municipi_1": null, "cant_pino": 0, "cant_cipre": 0, "cant_aliso": 0, "cant_encin": 0, "cant_otro": 0 }, "geometry": { "type": "Point", "coordinates": [ -91.30766625, 14.76266006 ] } },
{ "type": "Feature", "properties": { "globalid": "f74b9949-842d-4c66-8276-701e3dd9d808", "nombre_gua": "Juan Marcos Saquic", "municipio_": "Santa Lucia Utatlán", "region": "Altiplano Central", "area_prote": "rumcla", "area_pro_1": null, "municipio": "Santa Lucia Utatlán", "apoyo_fuer": "no", "apoyo_fu_1": null, "nombre_are": "Parachicoj del paraje Chuijomil,Canton Chichimuch", "tipo_refor": "compromiso_consumo", "area_refor": 0.1, "especies": "aliso", "especie_ot": null, "fecha": "2025-09-19T00:00:00", "hora": "09:55", "observacio": "Cumplio con el compromiso de reforestacion 30 alisos reforestados", "CreationDa": "2025-09-19T00:00:00", "Creator": null, "EditDate": "2025-09-19T00:00:00", "Editor": null, "consumo_fu": null, "guardarecu": null, "municipio1": null, "municipi_1": null, "cant_pino": 0, "cant_cipre": 0, "cant_aliso": 0, "cant_encin": 0, "cant_otro": 0 }, "geometry": { "type": "Point", "coordinates": [ -91.257635, 14.75609667 ] } },
{ "type": "Feature", "properties": { "globalid": "e998cc86-629f-4b93-8b35-05e5adc18cf8", "nombre_gua": "Juan Marcos Saquic", "municipio_": "Santa Lucia Utatlán", "region": "Altiplano Central", "area_prote": "rumcla", "area_pro_1": null, "municipio": "Santa Lucia Utatlán", "apoyo_fuer": "no", "apoyo_fu_1": null, "nombre_are": "Chui-San Pablo canton Pamezabal,", "tipo_refor": "compromiso_consumo", "area_refor": 0.1, "especies": "pino", "especie_ot": null, "fecha": "2025-09-19T00:00:00", "hora": "11:20", "observacio": "La Señora Sara Maria de León Muy a sembrado la cantidad de 20 arbolitos de la especie de Pino, por lo tanto si a cumplido con el compromiso, me acompaño el clmpañero Emilio Chox Can.", "CreationDa": "2025-09-19T00:00:00", "Creator": null, "EditDate": "2025-09-19T00:00:00", "Editor": null, "consumo_fu": null, "guardarecu": null, "municipio1": null, "municipi_1": null, "cant_pino": 0, "cant_cipre": 0, "cant_aliso": 0, "cant_encin": 0, "cant_otro": 0 }, "geometry": { "type": "Point", "coordinates": [ -91.29069167, 14.75391333 ] } },
{ "type": "Feature", "properties": { "globalid": "fd55704b-e794-4999-a6b3-aba3002833e0", "nombre_gua": "Juan Marcos Saquic", "municipio_": "Santa Lucia Utatlán", "region": "Altiplano Central", "area_prote": "rumcla", "area_pro_1": null, "municipio": "Santa Lucia Utatlán", "apoyo_fuer": null, "apoyo_fu_1": null, "nombre_are": "Los Manantiales, Pamezabal.", "tipo_refor": "compromiso_consumo", "area_refor": 0.1, "especies": "pino", "especie_ot": null, "fecha": "2025-09-19T00:00:00", "hora": "12:13", "observacio": "El señor Francisco Medardo Escun Ixcol a cumplido con el compromis de reforestacion, ya que tiene mas de 30 arboles de la especie de pinos reforestado en el lugar, ma acompaño el compañero Emilio Chox Can.", "CreationDa": "2025-09-19T00:00:00", "Creator": null, "EditDate": "2025-09-19T00:00:00", "Editor": null, "consumo_fu": "no", "guardarecu": null, "municipio1": null, "municipi_1": null, "cant_pino": 0, "cant_cipre": 0, "cant_aliso": 0, "cant_encin": 0, "cant_otro": 0 }, "geometry": { "type": "Point", "coordinates": [ -91.29749333, 14.75412833 ] } },
{ "type": "Feature", "properties": { "globalid": "aca41457-b4a5-4ecd-8c45-d6d2ae933744", "nombre_gua": "Jose Octavio Xitamul Recinos", "municipio_": "San José Chacaya", "region": "Altiplano Central", "area_prote": "rumcla", "area_pro_1": null, "municipio": "San José Chacaya", "apoyo_fuer": null, "apoyo_fu_1": null, "nombre_are": "El arenal", "tipo_refor": "compromiso_consumo", "area_refor": 540.0, "especies": "aliso,cipres", "especie_ot": null, "fecha": "2025-09-22T00:00:00", "hora": "10:52", "observacio": "Se reforesto la cantidad de 60 arbokes de la especie cipres y aliso por compromiso de CFF del señor Dagoberto Rene Perez otorgado el 03-04-2024", "CreationDa": "2025-09-22T00:00:00", "Creator": null, "EditDate": "2025-09-22T00:00:00", "Editor": null, "consumo_fu": "no", "guardarecu": null, "municipio1": null, "municipi_1": null, "cant_pino": 0, "cant_cipre": 0, "cant_aliso": 0, "cant_encin": 0, "cant_otro": 0 }, "geometry": { "type": "Point", "coordinates": [ -91.2193323, 14.77468869 ] } },
{ "type": "Feature", "properties": { "globalid": "7f52a230-0fe9-4fa7-8b4f-5a52822d13c6", "nombre_gua": "Jose Octavio Xitamul Recinos", "municipio_": "San José Chacaya", "region": "Altiplano Central", "area_prote": "rumcla", "area_pro_1": null, "municipio": "San José Chacaya", "apoyo_fuer": null, "apoyo_fu_1": null, "nombre_are": "El arenal", "tipo_refor": "compromiso_consumo", "area_refor": 270.0, "especies": "pino", "especie_ot": null, "fecha": "2025-09-22T00:00:00", "hora": "11:38", "observacio": null, "CreationDa": "2025-09-22T00:00:00", "Creator": null, "EditDate": "2025-09-22T00:00:00", "Editor": null, "consumo_fu": "no", "guardarecu": null, "municipio1": null, "municipi_1": null, "cant_pino": 0, "cant_cipre": 0, "cant_aliso": 0, "cant_encin": 0, "cant_otro": 0 }, "geometry": { "type": "Point", "coordinates": [ -91.21948728, 14.77669058 ] } },
{ "type": "Feature", "properties": { "globalid": "bcfb6c79-9b23-40c6-8836-8f5bf8eb183e", "nombre_gua": "Jose Octavio Xitamul Recinos", "municipio_": "San José Chacaya", "region": "Altiplano Central", "area_prote": "rumcla", "area_pro_1": null, "municipio": "San José Chacaya", "apoyo_fuer": null, "apoyo_fu_1": null, "nombre_are": "El arenal", "tipo_refor": "compromiso_consumo", "area_refor": 270.0, "especies": "pino", "especie_ot": null, "fecha": "2025-09-22T00:00:00", "hora": "11:39", "observacio": "Se realizo la inspeccion de compromiso de CFF del señor Angel Tuy Coc otorgado el 23-02-2025 con la cantidad de 30 arboles de la especie pino", "CreationDa": "2025-09-22T00:00:00", "Creator": null, "EditDate": "2025-09-22T00:00:00", "Editor": null, "consumo_fu": "no", "guardarecu": null, "municipio1": null, "municipi_1": null, "cant_pino": 0, "cant_cipre": 0, "cant_aliso": 0, "cant_encin": 0, "cant_otro": 0 }, "geometry": { "type": "Point", "coordinates": [ -91.21950022, 14.77764695 ] } },
{ "type": "Feature", "properties": { "globalid": "85fe2621-08a9-4cf8-ab38-86a79d2c2bbc", "nombre_gua": "Diego Martín Ramírez Ixbalan", "municipio_": "Santiago Atitlán", "region": "Altiplano Central", "area_prote": "rumcla", "area_pro_1": null, "municipio": "Santiago Atitlán", "apoyo_fuer": "no", "apoyo_fu_1": null, "nombre_are": "PERWA QXUOM Santiago Atitlan", "tipo_refor": "compromiso_consumo", "area_refor": 2.0, "especies": "aliso,cipres", "especie_ot": null, "fecha": "2025-09-05T00:00:00", "hora": "13:27", "observacio": "100 arbolitos con la escuala radio la vos de Atitlan sembrado en el lugar PERUA QXUOM", "CreationDa": "2025-09-22T00:00:00", "Creator": null, "EditDate": "2025-09-22T00:00:00", "Editor": null, "consumo_fu": null, "guardarecu": null, "municipio1": null, "municipi_1": null, "cant_pino": 0, "cant_cipre": 0, "cant_aliso": 0, "cant_encin": 0, "cant_otro": 0 }, "geometry": { "type": "Point", "coordinates": [ -91.23238644, 14.59853194 ] } },
{ "type": "Feature", "properties": { "globalid": "be0b614a-ab04-4fce-be1e-1d23ccdd5f88", "nombre_gua": "Diego Chacom Soben", "municipio_": "Santa Clara La Laguna", "region": "Altiplano Central", "area_prote": "rumcla", "area_pro_1": null, "municipio": "Santa Clara La Laguna", "apoyo_fuer": "no", "apoyo_fu_1": null, "nombre_are": "Chuijuyub", "tipo_refor": "compromiso_consumo", "area_refor": 0.1, "especies": "pino,aliso", "especie_ot": null, "fecha": "2025-09-18T00:00:00", "hora": "10:21", "observacio": "En lugar se encotro la cantidad de 200 arbolitos sembrados de especie pino.", "CreationDa": "2025-09-24T00:00:00", "Creator": null, "EditDate": "2025-09-24T00:00:00", "Editor": null, "consumo_fu": null, "guardarecu": null, "municipio1": null, "municipi_1": null, "cant_pino": 0, "cant_cipre": 0, "cant_aliso": 0, "cant_encin": 0, "cant_otro": 0 }, "geometry": { "type": "Point", "coordinates": [ -91.30766625, 14.76266006 ] } },
{ "type": "Feature", "properties": { "globalid": "07c7df4e-a1b6-4ba8-bdeb-1db8e7fbf8ab", "nombre_gua": "Diego Chacom Soben", "municipio_": "Santa Clara La Laguna", "region": "Altiplano Central", "area_prote": "rumcla", "area_pro_1": null, "municipio": "Santa Clara La Laguna", "apoyo_fuer": "no", "apoyo_fu_1": null, "nombre_are": "Chuijuyub", "tipo_refor": "compromiso_consumo", "area_refor": 0.1, "especies": "pino", "especie_ot": null, "fecha": "2025-09-18T00:00:00", "hora": "10:21", "observacio": "En lugar se encotro la cantidad de 28 arbolitos sembrados de especie pino.", "CreationDa": "2025-09-26T00:00:00", "Creator": null, "EditDate": "2025-09-26T00:00:00", "Editor": null, "consumo_fu": null, "guardarecu": null, "municipio1": null, "municipi_1": null, "cant_pino": 0, "cant_cipre": 0, "cant_aliso": 0, "cant_encin": 0, "cant_otro": 0 }, "geometry": { "type": "Point", "coordinates": [ -91.30766625, 14.76266006 ] } },
{ "type": "Feature", "properties": { "globalid": "af0bef9c-1b9a-4f7e-9bab-7c94dcea914d", "nombre_gua": "Diego Chacom Soben", "municipio_": "Santa Clara La Laguna", "region": "Altiplano Central", "area_prote": "rumcla", "area_pro_1": null, "municipio": "Santa Clara La Laguna", "apoyo_fuer": null, "apoyo_fu_1": null, "nombre_are": "Pauca", "tipo_refor": "compromiso_consumo", "area_refor": 0.0, "especies": null, "especie_ot": null, "fecha": "2025-09-25T00:00:00", "hora": "10:19", "observacio": "El señor Teodoro Garcia Yac. No ha cunplido con en compromiso de sembrar 10 arbolitos de pino", "CreationDa": "2025-09-26T00:00:00", "Creator": null, "EditDate": "2025-09-26T00:00:00", "Editor": null, "consumo_fu": "no", "guardarecu": null, "municipio1": null, "municipi_1": null, "cant_pino": 0, "cant_cipre": 0, "cant_aliso": 0, "cant_encin": 0, "cant_otro": 0 }, "geometry": { "type": "Point", "coordinates": [ -91.30348594, 14.751654 ] } },
{ "type": "Feature", "properties": { "globalid": "8b0b4b53-7eb6-4f87-8599-e64eeb12113b", "nombre_gua": "Juan Marcos Saquic", "municipio_": "Santa Lucia Utatlán", "region": "Altiplano Central", "area_prote": "rumcla", "area_pro_1": null, "municipio": "Santa Lucia Utatlán", "apoyo_fuer": null, "apoyo_fu_1": null, "nombre_are": "Reserva Natural Corazon del Bosque", "tipo_refor": "compromiso_consumo", "area_refor": 0.1, "especies": "pino", "especie_ot": null, "fecha": "2025-09-23T00:00:00", "hora": "10:37", "observacio": "Se verifico compromiso de reforestacion del señor Selvin Fernando Perez Aju, la cual se a reforestado la cantidad de 325 arboles de la especie de pino.", "CreationDa": "2025-09-26T00:00:00", "Creator": null, "EditDate": "2025-09-26T00:00:00", "Editor": null, "consumo_fu": "no", "guardarecu": null, "municipio1": null, "municipi_1": null, "cant_pino": 0, "cant_cipre": 0, "cant_aliso": 0, "cant_encin": 0, "cant_otro": 0 }, "geometry": { "type": "Point", "coordinates": [ -91.26036, 14.79038667 ] } },
{ "type": "Feature", "properties": { "globalid": "9273a2f6-f7cf-4dc5-b54b-1268803cc66f", "nombre_gua": "Juan Marcos Saquic", "municipio_": "Santa Lucia Utatlán", "region": "Altiplano Central", "area_prote": "rumcla", "area_pro_1": null, "municipio": "Santa Lucia Utatlán", "apoyo_fuer": null, "apoyo_fu_1": null, "nombre_are": "El Mirador Canton Pamezabál, Santa Lucia Utatlan", "tipo_refor": "compromiso_consumo", "area_refor": 0.1, "especies": "pino", "especie_ot": null, "fecha": "2025-09-23T00:00:00", "hora": "12:45", "observacio": "Se verifico el cumplimiento de compromiso de reforestacion por consumo con el señor Luis Patal", "CreationDa": "2025-09-26T00:00:00", "Creator": null, "EditDate": "2025-09-26T00:00:00", "Editor": null, "consumo_fu": "no", "guardarecu": null, "municipio1": null, "municipi_1": null, "cant_pino": 0, "cant_cipre": 0, "cant_aliso": 0, "cant_encin": 0, "cant_otro": 0 }, "geometry": { "type": "Point", "coordinates": [ -91.29561833, 14.751245 ] } },
{ "type": "Feature", "properties": { "globalid": "c17b2d8e-1493-4fe5-a388-2720c717ebae", "nombre_gua": "Ruben Enrique Sumoza Mendoza", "municipio_": "SanJuan La Laguna", "region": "Altiplano Central", "area_prote": "rumcla", "area_pro_1": null, "municipio": "SanJuan La Laguna", "apoyo_fuer": null, "apoyo_fu_1": null, "nombre_are": "Xequisteel   san pedro", "tipo_refor": "compromiso_consumo", "area_refor": 107.0, "especies": "aliso", "especie_ot": null, "fecha": "2025-10-10T00:00:00", "hora": "08:47", "observacio": "En el area se pbservo  brotes  natural de la recuperacipn de area.", "CreationDa": "2025-10-10T00:00:00", "Creator": null, "EditDate": "2025-10-10T00:00:00", "Editor": null, "consumo_fu": "si", "guardarecu": null, "municipio1": null, "municipi_1": null, "cant_pino": 0, "cant_cipre": 0, "cant_aliso": 0, "cant_encin": 0, "cant_otro": 0 }, "geometry": { "type": "Point", "coordinates": [ -91.288545, 14.66506333 ] } },
{ "type": "Feature", "properties": { "globalid": "aed63625-b205-400d-b9f7-f2e31025b624", "nombre_gua": "Henry Regino Méndez Chavajay", "municipio_": "San Pedro La Laguna", "region": "Altiplano Central", "area_prote": "rumcla", "area_pro_1": null, "municipio": "San Pedro La Laguna", "apoyo_fuer": "no", "apoyo_fu_1": null, "nombre_are": "xekisteel", "tipo_refor": "compromiso_consumo", "area_refor": 0.107, "especies": "otro", "especie_ot": "Brotes Naturales", "fecha": "2025-10-10T00:00:00", "hora": "08:51", "observacio": "En el area se observo brotes naturales, recuperacion del area", "CreationDa": "2025-10-10T00:00:00", "Creator": null, "EditDate": "2025-10-10T00:00:00", "Editor": null, "consumo_fu": null, "guardarecu": null, "municipio1": null, "municipi_1": null, "cant_pino": 0, "cant_cipre": 0, "cant_aliso": 0, "cant_encin": 0, "cant_otro": 0 }, "geometry": { "type": "Point", "coordinates": [ -91.3061104, 14.7117975 ] } },
{ "type": "Feature", "properties": { "globalid": "add94cee-47f8-4ad6-92db-d620934d7fd4", "nombre_gua": "Ruben Enrique Sumoza Mendoza", "municipio_": "SanJuan La Laguna", "region": "Altiplano Central", "area_prote": "rumcla", "area_pro_1": null, "municipio": "San pedro lalaguna", "apoyo_fuer": null, "apoyo_fu_1": null, "nombre_are": "Pajoco", "tipo_refor": "compromiso_consumo", "area_refor": 462.0, "especies": "aliso,cipres", "especie_ot": null, "fecha": "2025-10-10T00:00:00", "hora": "09:47", "observacio": "Se observo  el compromiso  realizado  en el area de reforestacipn", "CreationDa": "2025-10-10T00:00:00", "Creator": null, "EditDate": "2025-10-10T00:00:00", "Editor": null, "consumo_fu": "si", "guardarecu": null, "municipio1": null, "municipi_1": null, "cant_pino": 0, "cant_cipre": 0, "cant_aliso": 0, "cant_encin": 0, "cant_otro": 0 }, "geometry": { "type": "Point", "coordinates": [ -91.29861256, 14.64780474 ] } },
{ "type": "Feature", "properties": { "globalid": "01faba7a-c7bd-4f21-905e-65228dc40329", "nombre_gua": "Henry Regino Méndez Chavajay", "municipio_": "San Pedro La Laguna", "region": "Altiplano Central", "area_prote": "rumcla", "area_pro_1": null, "municipio": "San Pedro La Laguna", "apoyo_fuer": "no", "apoyo_fu_1": null, "nombre_are": "pajoco", "tipo_refor": "compromiso_consumo", "area_refor": 0.25, "especies": "aliso", "especie_ot": null, "fecha": "2025-10-10T00:00:00", "hora": "09:45", "observacio": "cumplio con la reforestacion", "CreationDa": "2025-10-10T00:00:00", "Creator": null, "EditDate": "2025-10-10T00:00:00", "Editor": null, "consumo_fu": null, "guardarecu": null, "municipio1": null, "municipi_1": null, "cant_pino": 0, "cant_cipre": 0, "cant_aliso": 0, "cant_encin": 0, "cant_otro": 0 }, "geometry": { "type": "Point", "coordinates": [ -91.29788988, 14.64451627 ] } },
{ "type": "Feature", "properties": { "globalid": "08c9c608-9338-453a-8ef4-976bd9b20b30", "nombre_gua": null, "municipio_": null, "region": "Altiplano Central", "area_prote": "rumcla", "area_pro_1": null, "municipio": "San Pedro la laguna", "apoyo_fuer": null, "apoyo_fu_1": null, "nombre_are": "Tzampix san pedro", "tipo_refor": "compromiso_consumo", "area_refor": 28.0, "especies": "aliso", "especie_ot": null, "fecha": "2025-10-10T00:00:00", "hora": "10:19", "observacio": "Se observo   unica brotes en el area  de  cuatro arboles", "CreationDa": "2025-10-10T00:00:00", "Creator": null, "EditDate": "2025-10-10T00:00:00", "Editor": null, "consumo_fu": "si", "guardarecu": null, "municipio1": null, "municipi_1": null, "cant_pino": 0, "cant_cipre": 0, "cant_aliso": 0, "cant_encin": 0, "cant_otro": 0 }, "geometry": { "type": "Point", "coordinates": [ -91.29392, 14.657895 ] } },
{ "type": "Feature", "properties": { "globalid": "8322469d-8e9e-4e16-8eaa-93b924e328c3", "nombre_gua": "Henry Regino Méndez Chavajay", "municipio_": "San Pedro La Laguna", "region": "Altiplano Central", "area_prote": "rumcla", "area_pro_1": null, "municipio": "San Pedro La Laguna", "apoyo_fuer": "no", "apoyo_fu_1": null, "nombre_are": "Tzan pixk", "tipo_refor": "compromiso_consumo", "area_refor": 0.28, "especies": "aliso", "especie_ot": null, "fecha": "2025-10-10T00:00:00", "hora": "10:18", "observacio": "Brotes naturales y si esta creciendo.", "CreationDa": "2025-10-10T00:00:00", "Creator": null, "EditDate": "2025-10-10T00:00:00", "Editor": null, "consumo_fu": null, "guardarecu": null, "municipio1": null, "municipi_1": null, "cant_pino": 0, "cant_cipre": 0, "cant_aliso": 0, "cant_encin": 0, "cant_otro": 0 }, "geometry": { "type": "Point", "coordinates": [ -91.29397738, 14.65794532 ] } },
{ "type": "Feature", "properties": { "globalid": "d812b776-57d3-4a39-9659-ecd10e9ea439", "nombre_gua": "Henry Regino Méndez Chavajay", "municipio_": "San Pedro La Laguna", "region": "Altiplano Central", "area_prote": "rumcla", "area_pro_1": null, "municipio": "San Pedro La Laguna", "apoyo_fuer": "no", "apoyo_fu_1": null, "nombre_are": "xecruz", "tipo_refor": "compromiso_consumo", "area_refor": 0.14, "especies": null, "especie_ot": null, "fecha": "2025-10-08T00:00:00", "hora": "12:30", "observacio": "El señor no realizo el consumo solicitado.", "CreationDa": "2025-10-13T00:00:00", "Creator": null, "EditDate": "2025-10-13T00:00:00", "Editor": null, "consumo_fu": null, "guardarecu": null, "municipio1": null, "municipi_1": null, "cant_pino": 0, "cant_cipre": 0, "cant_aliso": 0, "cant_encin": 0, "cant_otro": 0 }, "geometry": { "type": "Point", "coordinates": [ -91.29611053, 14.63712007 ] } },
{ "type": "Feature", "properties": { "globalid": "8a35ac4c-0c33-4c34-b0e6-c899e35eda60", "nombre_gua": "Diego Martín Ramírez Ixbalan", "municipio_": "Santiago Atitlán", "region": "Altiplano Central", "area_prote": "rumcla", "area_pro_1": null, "municipio": "Santiago Atitlán", "apoyo_fuer": null, "apoyo_fu_1": null, "nombre_are": "Entre CHIKA y  XEVOLCAN", "tipo_refor": "compromiso_consumo", "area_refor": 2.0, "especies": "aliso", "especie_ot": null, "fecha": "2025-10-13T00:00:00", "hora": "11:15", "observacio": "El se Diego Tzina reforesto 100 arbolitos de aliso en el aria Chika reforestavion voluntaria", "CreationDa": "2025-10-14T00:00:00", "Creator": null, "EditDate": "2025-10-14T00:00:00", "Editor": null, "consumo_fu": "no", "guardarecu": null, "municipio1": null, "municipi_1": null, "cant_pino": 0, "cant_cipre": 0, "cant_aliso": 0, "cant_encin": 0, "cant_otro": 0 }, "geometry": { "type": "Point", "coordinates": [ -91.2191633, 14.60177069 ] } },
{ "type": "Feature", "properties": { "globalid": "e56dc081-fa13-4416-be52-5b4045ccb92c", "nombre_gua": "Henry Regino Méndez Chavajay", "municipio_": "San Pedro La Laguna", "region": "Altiplano Central", "area_prote": "rumcla", "area_pro_1": null, "municipio": "San Pedro La Laguna", "apoyo_fuer": "no", "apoyo_fu_1": null, "nombre_are": "Xecruz", "tipo_refor": "compromiso_consumo", "area_refor": 0.142, "especies": "otro", "especie_ot": "Canalillo", "fecha": "2025-10-14T00:00:00", "hora": "09:06", "observacio": "muchos arbolitos de canalillo", "CreationDa": "2025-10-14T00:00:00", "Creator": null, "EditDate": "2025-10-14T00:00:00", "Editor": null, "consumo_fu": null, "guardarecu": null, "municipio1": null, "municipi_1": null, "cant_pino": 0, "cant_cipre": 0, "cant_aliso": 0, "cant_encin": 0, "cant_otro": 0 }, "geometry": { "type": "Point", "coordinates": [ -91.29157497, 14.63907145 ] } },
{ "type": "Feature", "properties": { "globalid": "564e5f41-5bc1-4092-8666-4482afe67eaf", "nombre_gua": "Henry Regino Méndez Chavajay", "municipio_": "San Pedro La Laguna", "region": "Altiplano Central", "area_prote": "rumcla", "area_pro_1": null, "municipio": "San Pedro La Laguna", "apoyo_fuer": "no", "apoyo_fu_1": null, "nombre_are": "Pajoco", "tipo_refor": "compromiso_consumo", "area_refor": 0.142, "especies": "cipres", "especie_ot": null, "fecha": "2025-10-14T00:00:00", "hora": "09:35", "observacio": "Ya se han desarrollado", "CreationDa": "2025-10-14T00:00:00", "Creator": null, "EditDate": "2025-10-14T00:00:00", "Editor": null, "consumo_fu": null, "guardarecu": null, "municipio1": null, "municipi_1": null, "cant_pino": 0, "cant_cipre": 0, "cant_aliso": 0, "cant_encin": 0, "cant_otro": 0 }, "geometry": { "type": "Point", "coordinates": [ -91.2982834, 14.64446095 ] } },
{ "type": "Feature", "properties": { "globalid": "7b87856c-52ae-4773-a28a-eaf06bb22303", "nombre_gua": "Henry Regino Méndez Chavajay", "municipio_": "San Pedro La Laguna", "region": "Altiplano Central", "area_prote": "rumcla", "area_pro_1": null, "municipio": "San Pedro La Laguna", "apoyo_fuer": "no", "apoyo_fu_1": null, "nombre_are": "chausajok", "tipo_refor": "compromiso_consumo", "area_refor": 0.178, "especies": "otro", "especie_ot": "palo blanco", "fecha": "2025-10-14T00:00:00", "hora": "12:21", "observacio": "sembro palo blanco", "CreationDa": "2025-10-14T00:00:00", "Creator": null, "EditDate": "2025-10-14T00:00:00", "Editor": null, "consumo_fu": null, "guardarecu": null, "municipio1": null, "municipi_1": null, "cant_pino": 0, "cant_cipre": 0, "cant_aliso": 0, "cant_encin": 0, "cant_otro": 0 }, "geometry": { "type": "Point", "coordinates": [ -91.2799257, 14.717045 ] } },
{ "type": "Feature", "properties": { "globalid": "0eb115f4-dc87-4fb1-a93d-6dafab310573", "nombre_gua": "Henry Regino Méndez Chavajay", "municipio_": "San Pedro La Laguna", "region": "Altiplano Central", "area_prote": "rumcla", "area_pro_1": null, "municipio": "San Pedro La Laguna", "apoyo_fuer": "no", "apoyo_fu_1": null, "nombre_are": "Xechimay", "tipo_refor": "compromiso_consumo", "area_refor": 0.142, "especies": "otro", "especie_ot": "Palo blanco", "fecha": "2025-10-14T00:00:00", "hora": "12:32", "observacio": "Sembro semillas de palo blanco", "CreationDa": "2025-10-14T00:00:00", "Creator": null, "EditDate": "2025-10-14T00:00:00", "Editor": null, "consumo_fu": null, "guardarecu": null, "municipio1": null, "municipi_1": null, "cant_pino": 0, "cant_cipre": 0, "cant_aliso": 0, "cant_encin": 0, "cant_otro": 0 }, "geometry": { "type": "Point", "coordinates": [ -91.27884502, 14.6771703 ] } },
{ "type": "Feature", "properties": { "globalid": "280aff39-d477-4671-92ce-74b6c90ddc28", "nombre_gua": "Henry Regino Méndez Chavajay", "municipio_": "San Pedro La Laguna", "region": "Altiplano Central", "area_prote": "rumcla", "area_pro_1": null, "municipio": "San Pedro La Laguna", "apoyo_fuer": "no", "apoyo_fu_1": null, "nombre_are": "Pamaqzul", "tipo_refor": "compromiso_consumo", "area_refor": 0.5, "especies": "aliso", "especie_ot": null, "fecha": "2025-10-14T00:00:00", "hora": "15:19", "observacio": "Se encontro buena cantidad de semillas de Aliso", "CreationDa": "2025-10-14T00:00:00", "Creator": null, "EditDate": "2025-10-14T00:00:00", "Editor": null, "consumo_fu": null, "guardarecu": null, "municipio1": null, "municipi_1": null, "cant_pino": 0, "cant_cipre": 0, "cant_aliso": 0, "cant_encin": 0, "cant_otro": 0 }, "geometry": { "type": "Point", "coordinates": [ -91.30445642, 14.65107085 ] } },
{ "type": "Feature", "properties": { "globalid": "0a373aeb-de70-4851-9e9c-65ed3bf62d13", "nombre_gua": "Diego Martín Ramírez Ixbalan", "municipio_": "Santiago Atitlán", "region": "Altiplano Central", "area_prote": "rumcla", "area_pro_1": null, "municipio": "Santiago Atitlán", "apoyo_fuer": null, "apoyo_fu_1": null, "nombre_are": "Xevolcan Santiago Atititlan", "tipo_refor": "compromiso_consumo", "area_refor": 10.0, "especies": "pino,cipres,aliso", "especie_ot": null, "fecha": "2025-10-15T00:00:00", "hora": "14:47", "observacio": null, "CreationDa": "2025-10-15T00:00:00", "Creator": null, "EditDate": "2025-10-15T00:00:00", "Editor": null, "consumo_fu": "no", "guardarecu": null, "municipio1": null, "municipi_1": null, "cant_pino": 0, "cant_cipre": 0, "cant_aliso": 0, "cant_encin": 0, "cant_otro": 0 }, "geometry": { "type": "Point", "coordinates": [ -91.21303675, 14.59711234 ] } },
{ "type": "Feature", "properties": { "globalid": "0bf15a8e-3d79-4b47-8e3c-5a1644dc2e52", "nombre_gua": "Edgar Bartolo Batín Navichoc", "municipio_": "San Pedro La Laguna", "region": "Altiplano Central", "area_prote": "rumcla", "area_pro_1": null, "municipio": "San Pedro La Laguna", "apoyo_fuer": "no", "apoyo_fu_1": null, "nombre_are": "Chuaquisteel", "tipo_refor": "compromiso_consumo", "area_refor": 0.0, "especies": "aliso,pino", "especie_ot": null, "fecha": "2025-10-16T00:00:00", "hora": "09:17", "observacio": null, "CreationDa": "2025-10-16T00:00:00", "Creator": null, "EditDate": "2025-10-16T00:00:00", "Editor": null, "consumo_fu": null, "guardarecu": null, "municipio1": null, "municipi_1": null, "cant_pino": 0, "cant_cipre": 0, "cant_aliso": 0, "cant_encin": 0, "cant_otro": 0 }, "geometry": { "type": "Point", "coordinates": [ -91.28625095, 14.6587455 ] } },
{ "type": "Feature", "properties": { "globalid": "cbfcd85d-7131-47f2-ad88-2444c4cc10e2", "nombre_gua": "Henry Regino Méndez Chavajay", "municipio_": "San Pedro La Laguna", "region": "Altiplano Central", "area_prote": "rumcla", "area_pro_1": null, "municipio": "San Pedro La Laguna", "apoyo_fuer": "no", "apoyo_fu_1": null, "nombre_are": "Pachojob", "tipo_refor": "compromiso_consumo", "area_refor": 0.714, "especies": "pino,cipres,aliso", "especie_ot": null, "fecha": "2025-10-15T00:00:00", "hora": "10:19", "observacio": "Pues ya crecieron se sembraron el año pasado", "CreationDa": "2025-10-16T00:00:00", "Creator": null, "EditDate": "2025-10-16T00:00:00", "Editor": null, "consumo_fu": null, "guardarecu": null, "municipio1": null, "municipi_1": null, "cant_pino": 0, "cant_cipre": 0, "cant_aliso": 0, "cant_encin": 0, "cant_otro": 0 }, "geometry": { "type": "Point", "coordinates": [ -91.28206922, 14.65081402 ] } },
{ "type": "Feature", "properties": { "globalid": "6f74f280-44bc-448f-a30f-c4ad28eb6f3f", "nombre_gua": "Henry Regino Méndez Chavajay", "municipio_": "San Pedro La Laguna", "region": "Altiplano Central", "area_prote": "rumcla", "area_pro_1": null, "municipio": "San Pedro La Laguna", "apoyo_fuer": "no", "apoyo_fu_1": null, "nombre_are": "Pachojob", "tipo_refor": "compromiso_consumo", "area_refor": 0.28, "especies": "aliso,otro", "especie_ot": "aliso y canalillo", "fecha": "2025-10-16T00:00:00", "hora": "10:38", "observacio": "aliso y canalillo", "CreationDa": "2025-10-16T00:00:00", "Creator": null, "EditDate": "2025-10-16T00:00:00", "Editor": null, "consumo_fu": null, "guardarecu": null, "municipio1": null, "municipi_1": null, "cant_pino": 0, "cant_cipre": 0, "cant_aliso": 0, "cant_encin": 0, "cant_otro": 0 }, "geometry": { "type": "Point", "coordinates": [ -91.28441032, 14.65273852 ] } },
{ "type": "Feature", "properties": { "globalid": "ded2a7bf-1899-4c15-a120-c61b619a688b", "nombre_gua": "Edgar Bartolo Batín Navichoc", "municipio_": "San Pedro La Laguna", "region": "Altiplano Central", "area_prote": "rumcla", "area_pro_1": null, "municipio": "San Pedro La Laguna", "apoyo_fuer": "no", "apoyo_fu_1": null, "nombre_are": "Pachojob", "tipo_refor": "compromiso_consumo", "area_refor": 0.0, "especies": "pino,encino", "especie_ot": null, "fecha": "2025-10-16T00:00:00", "hora": "11:01", "observacio": null, "CreationDa": "2025-10-16T00:00:00", "Creator": null, "EditDate": "2025-10-16T00:00:00", "Editor": null, "consumo_fu": null, "guardarecu": null, "municipio1": null, "municipi_1": null, "cant_pino": 0, "cant_cipre": 0, "cant_aliso": 0, "cant_encin": 0, "cant_otro": 0 }, "geometry": { "type": "Point", "coordinates": [ -91.2796954, 14.65229722 ] } },
{ "type": "Feature", "properties": { "globalid": "0b2ff744-9e5b-41b5-bc1c-3b3ef50339b3", "nombre_gua": "Henry Regino Méndez Chavajay", "municipio_": "San Pedro La Laguna", "region": "Altiplano Central", "area_prote": "rumcla", "area_pro_1": null, "municipio": "San Pedro La Laguna", "apoyo_fuer": "no", "apoyo_fu_1": null, "nombre_are": "kojoljuyu", "tipo_refor": "compromiso_consumo", "area_refor": 0.285, "especies": "aliso,pino", "especie_ot": null, "fecha": "2025-10-16T00:00:00", "hora": "12:18", "observacio": "Si hubo reforestcion de aliso y pino y bastante, ya han crecido", "CreationDa": "2025-10-16T00:00:00", "Creator": null, "EditDate": "2025-10-16T00:00:00", "Editor": null, "consumo_fu": null, "guardarecu": null, "municipio1": null, "municipi_1": null, "cant_pino": 0, "cant_cipre": 0, "cant_aliso": 0, "cant_encin": 0, "cant_otro": 0 }, "geometry": { "type": "Point", "coordinates": [ -91.29847007, 14.64926033 ] } },
{ "type": "Feature", "properties": { "globalid": "67c6e84f-39f5-4935-ad86-d7fc2230b612", "nombre_gua": "Edgar Bartolo Batín Navichoc", "municipio_": "San Pedro La Laguna", "region": "Altiplano Central", "area_prote": "rumcla", "area_pro_1": null, "municipio": "San Pedro La Laguna", "apoyo_fuer": "no", "apoyo_fu_1": null, "nombre_are": "Paxinabaj", "tipo_refor": "compromiso_consumo", "area_refor": 0.0, "especies": "pino", "especie_ot": null, "fecha": "2025-10-17T00:00:00", "hora": "10:02", "observacio": "Se ralizo la reforestcion", "CreationDa": "2025-10-17T00:00:00", "Creator": null, "EditDate": "2025-10-17T00:00:00", "Editor": null, "consumo_fu": null, "guardarecu": null, "municipio1": null, "municipi_1": null, "cant_pino": 0, "cant_cipre": 0, "cant_aliso": 0, "cant_encin": 0, "cant_otro": 0 }, "geometry": { "type": "Point", "coordinates": [ -91.27964969, 14.66586456 ] } },
{ "type": "Feature", "properties": { "globalid": "b87df524-92dc-4f10-a33b-5c7b4b3499e3", "nombre_gua": "Edgar Bartolo Batín Navichoc", "municipio_": "San Pedro La Laguna", "region": "Altiplano Central", "area_prote": "rumcla", "area_pro_1": null, "municipio": "San Pedro La Laguna", "apoyo_fuer": "no", "apoyo_fu_1": null, "nombre_are": "Paxinabaj", "tipo_refor": "compromiso_consumo", "area_refor": 0.0, "especies": "pino", "especie_ot": null, "fecha": "2025-10-17T00:00:00", "hora": "10:15", "observacio": "Realizado", "CreationDa": "2025-10-17T00:00:00", "Creator": null, "EditDate": "2025-10-17T00:00:00", "Editor": null, "consumo_fu": null, "guardarecu": null, "municipio1": null, "municipi_1": null, "cant_pino": 0, "cant_cipre": 0, "cant_aliso": 0, "cant_encin": 0, "cant_otro": 0 }, "geometry": { "type": "Point", "coordinates": [ -91.27947898, 14.66577341 ] } },
{ "type": "Feature", "properties": { "globalid": "6496628c-1eb8-4453-9e7a-a1b62b77bc5c", "nombre_gua": "Edgar Bartolo Batín Navichoc", "municipio_": "San Pedro La Laguna", "region": "Altiplano Central", "area_prote": "rumcla", "area_pro_1": null, "municipio": "San Pedro La Laguna", "apoyo_fuer": "no", "apoyo_fu_1": null, "nombre_are": "Paxinabaj", "tipo_refor": "compromiso_consumo", "area_refor": 0.0, "especies": "pino", "especie_ot": null, "fecha": "2025-10-17T00:00:00", "hora": "10:23", "observacio": "Realizado", "CreationDa": "2025-10-17T00:00:00", "Creator": null, "EditDate": "2025-10-17T00:00:00", "Editor": null, "consumo_fu": null, "guardarecu": null, "municipio1": null, "municipi_1": null, "cant_pino": 0, "cant_cipre": 0, "cant_aliso": 0, "cant_encin": 0, "cant_otro": 0 }, "geometry": { "type": "Point", "coordinates": [ -91.28153357, 14.66504736 ] } },
{ "type": "Feature", "properties": { "globalid": "05387e2e-d8e1-487a-bf17-cb104628f071", "nombre_gua": "Edgar Bartolo Batín Navichoc", "municipio_": "San Pedro La Laguna", "region": "Altiplano Central", "area_prote": "rumcla", "area_pro_1": null, "municipio": "San Pedro La Laguna", "apoyo_fuer": "no", "apoyo_fu_1": null, "nombre_are": "Xequisteel", "tipo_refor": "compromiso_consumo", "area_refor": 0.0, "especies": "pino", "especie_ot": null, "fecha": "2025-10-17T00:00:00", "hora": "11:10", "observacio": "Reforestacion realizada", "CreationDa": "2025-10-17T00:00:00", "Creator": null, "EditDate": "2025-10-17T00:00:00", "Editor": null, "consumo_fu": null, "guardarecu": null, "municipio1": null, "municipi_1": null, "cant_pino": 0, "cant_cipre": 0, "cant_aliso": 0, "cant_encin": 0, "cant_otro": 0 }, "geometry": { "type": "Point", "coordinates": [ -91.28815304, 14.65734009 ] } },
{ "type": "Feature", "properties": { "globalid": "1ae9ba3b-0796-4cb1-b60f-affeb0835d98", "nombre_gua": "Edgar Bartolo Batín Navichoc", "municipio_": "San Pedro La Laguna", "region": "Altiplano Central", "area_prote": "rumcla", "area_pro_1": null, "municipio": "San Pedro La Laguna", "apoyo_fuer": "no", "apoyo_fu_1": null, "nombre_are": "Xequisteel", "tipo_refor": "compromiso_consumo", "area_refor": 0.0, "especies": "pino", "especie_ot": null, "fecha": "2025-10-17T00:00:00", "hora": "11:45", "observacio": "Realizado", "CreationDa": "2025-10-17T00:00:00", "Creator": null, "EditDate": "2025-10-17T00:00:00", "Editor": null, "consumo_fu": null, "guardarecu": null, "municipio1": null, "municipi_1": null, "cant_pino": 0, "cant_cipre": 0, "cant_aliso": 0, "cant_encin": 0, "cant_otro": 0 }, "geometry": { "type": "Point", "coordinates": [ -91.28879307, 14.66358513 ] } },
{ "type": "Feature", "properties": { "globalid": "5ab9c0cf-a8e3-455b-bd3d-d6b2a37edad8", "nombre_gua": "Edgar Bartolo Batín Navichoc", "municipio_": "San Pedro La Laguna", "region": "Altiplano Central", "area_prote": "rumcla", "area_pro_1": null, "municipio": "San Pedro La Laguna", "apoyo_fuer": "no", "apoyo_fu_1": null, "nombre_are": "Xechimay", "tipo_refor": "compromiso_consumo", "area_refor": 0.0, "especies": "pino", "especie_ot": null, "fecha": "2025-10-17T00:00:00", "hora": "11:52", "observacio": "Realizado", "CreationDa": "2025-10-17T00:00:00", "Creator": null, "EditDate": "2025-10-17T00:00:00", "Editor": null, "consumo_fu": null, "guardarecu": null, "municipio1": null, "municipi_1": null, "cant_pino": 0, "cant_cipre": 0, "cant_aliso": 0, "cant_encin": 0, "cant_otro": 0 }, "geometry": { "type": "Point", "coordinates": [ -91.28107162, 14.67411624 ] } },
{ "type": "Feature", "properties": { "globalid": "d2f12145-1548-4d27-836f-fd144dbaacc2", "nombre_gua": "Edgar Bartolo Batín Navichoc", "municipio_": "San Pedro La Laguna", "region": "Altiplano Central", "area_prote": "rumcla", "area_pro_1": null, "municipio": "San Pedro La Laguna", "apoyo_fuer": "no", "apoyo_fu_1": null, "nombre_are": "Chuaquisteel", "tipo_refor": "compromiso_consumo", "area_refor": 0.0, "especies": "pino", "especie_ot": null, "fecha": "2025-10-21T00:00:00", "hora": "09:27", "observacio": "Realizado", "CreationDa": "2025-10-21T00:00:00", "Creator": null, "EditDate": "2025-10-21T00:00:00", "Editor": null, "consumo_fu": null, "guardarecu": null, "municipio1": null, "municipi_1": null, "cant_pino": 0, "cant_cipre": 0, "cant_aliso": 0, "cant_encin": 0, "cant_otro": 0 }, "geometry": { "type": "Point", "coordinates": [ -91.28643075, 14.66113058 ] } },
{ "type": "Feature", "properties": { "globalid": "9bf8b3f3-23ab-4ae4-adfe-6b4b28644f35", "nombre_gua": "Henry Regino Méndez Chavajay", "municipio_": "San Pedro La Laguna", "region": "Altiplano Central", "area_prote": "rumcla", "area_pro_1": null, "municipio": "San Pedro La Laguna", "apoyo_fuer": "no", "apoyo_fu_1": null, "nombre_are": "Pachinam", "tipo_refor": "compromiso_consumo", "area_refor": 0.6, "especies": "aliso,otro,encino", "especie_ot": "Solamente", "fecha": "2025-10-16T00:00:00", "hora": "09:34", "observacio": "se encontro generacion natural y tambien brote natural", "CreationDa": "2025-10-21T00:00:00", "Creator": null, "EditDate": "2025-10-21T00:00:00", "Editor": null, "consumo_fu": null, "guardarecu": null, "municipio1": null, "municipi_1": null, "cant_pino": 0, "cant_cipre": 0, "cant_aliso": 0, "cant_encin": 0, "cant_otro": 0 }, "geometry": { "type": "Point", "coordinates": [ -91.2901696, 14.6579333 ] } },
{ "type": "Feature", "properties": { "globalid": "822d7d83-0dc6-424f-8c05-95acdae2d311", "nombre_gua": "Edgar Bartolo Batín Navichoc", "municipio_": "San Pedro La Laguna", "region": "Altiplano Central", "area_prote": "rumcla", "area_pro_1": null, "municipio": "San Pedro La Laguna", "apoyo_fuer": null, "apoyo_fu_1": null, "nombre_are": "Paxinabaj", "tipo_refor": "compromiso_consumo", "area_refor": 0.0, "especies": "pino,aliso", "especie_ot": null, "fecha": "2025-10-21T00:00:00", "hora": "10:13", "observacio": "Realizado", "CreationDa": "2025-10-21T00:00:00", "Creator": null, "EditDate": "2025-10-21T00:00:00", "Editor": null, "consumo_fu": "no", "guardarecu": null, "municipio1": null, "municipi_1": null, "cant_pino": 0, "cant_cipre": 0, "cant_aliso": 0, "cant_encin": 0, "cant_otro": 0 }, "geometry": { "type": "Point", "coordinates": [ -91.28122605, 14.6669706 ] } },
{ "type": "Feature", "properties": { "globalid": "7a067f84-2dda-4e45-a18e-0335e240f39b", "nombre_gua": "Henry Regino Méndez Chavajay", "municipio_": "San Pedro La Laguna", "region": "Altiplano Central", "area_prote": "rumcla", "area_pro_1": null, "municipio": "San Pedro La Laguna", "apoyo_fuer": "no", "apoyo_fu_1": null, "nombre_are": "pajoco", "tipo_refor": "compromiso_consumo", "area_refor": 0.2, "especies": "aliso,pino", "especie_ot": null, "fecha": "2025-10-21T00:00:00", "hora": "11:41", "observacio": "Esta lleno de aliso y pino", "CreationDa": "2025-10-21T00:00:00", "Creator": null, "EditDate": "2025-10-21T00:00:00", "Editor": null, "consumo_fu": null, "guardarecu": null, "municipio1": null, "municipi_1": null, "cant_pino": 0, "cant_cipre": 0, "cant_aliso": 0, "cant_encin": 0, "cant_otro": 0 }, "geometry": { "type": "Point", "coordinates": [ -91.29397127, 14.6431809 ] } },
{ "type": "Feature", "properties": { "globalid": "c8cb1829-406a-455d-a05c-6bf50e858f09", "nombre_gua": "Henry Regino Méndez Chavajay", "municipio_": "San Pedro La Laguna", "region": "Altiplano Central", "area_prote": "rumcla", "area_pro_1": null, "municipio": "San Pedro La Laguna", "apoyo_fuer": "no", "apoyo_fu_1": null, "nombre_are": "tzanqanulew", "tipo_refor": "compromiso_consumo", "area_refor": 0.2, "especies": "pino", "especie_ot": null, "fecha": "2025-10-21T00:00:00", "hora": "12:48", "observacio": "Exelente reforestacion solo de pino y esta bien limpio y bien cuidado", "CreationDa": "2025-10-21T00:00:00", "Creator": null, "EditDate": "2025-10-21T00:00:00", "Editor": null, "consumo_fu": null, "guardarecu": null, "municipio1": null, "municipi_1": null, "cant_pino": 0, "cant_cipre": 0, "cant_aliso": 0, "cant_encin": 0, "cant_otro": 0 }, "geometry": { "type": "Point", "coordinates": [ -91.29560418, 14.6469385 ] } },
{ "type": "Feature", "properties": { "globalid": "231662da-8367-49b3-a55c-2fefd2183c47", "nombre_gua": "Edgar Bartolo Batín Navichoc", "municipio_": "San Pedro La Laguna", "region": "Altiplano Central", "area_prote": "rumcla", "area_pro_1": null, "municipio": "San Pedro La Laguna", "apoyo_fuer": null, "apoyo_fu_1": null, "nombre_are": "Chuachumil", "tipo_refor": "compromiso_consumo", "area_refor": 0.0, "especies": "pino", "especie_ot": null, "fecha": "2025-10-22T00:00:00", "hora": "08:55", "observacio": "Realizado", "CreationDa": "2025-10-22T00:00:00", "Creator": null, "EditDate": "2025-10-22T00:00:00", "Editor": null, "consumo_fu": "no", "guardarecu": null, "municipio1": null, "municipi_1": null, "cant_pino": 0, "cant_cipre": 0, "cant_aliso": 0, "cant_encin": 0, "cant_otro": 0 }, "geometry": { "type": "Point", "coordinates": [ -91.28891733, 14.6531136 ] } },
{ "type": "Feature", "properties": { "globalid": "0ff68abb-bbfb-44e0-b9e7-3acfa7c13b81", "nombre_gua": "Edgar Bartolo Batín Navichoc", "municipio_": "San Pedro La Laguna", "region": "Altiplano Central", "area_prote": "rumcla", "area_pro_1": null, "municipio": "San Pedro La Laguna", "apoyo_fuer": null, "apoyo_fu_1": null, "nombre_are": "Chuachumil", "tipo_refor": "compromiso_consumo", "area_refor": 0.0, "especies": "pino", "especie_ot": null, "fecha": "2025-10-22T00:00:00", "hora": "10:22", "observacio": "Realizado", "CreationDa": "2025-10-22T00:00:00", "Creator": null, "EditDate": "2025-10-22T00:00:00", "Editor": null, "consumo_fu": "no", "guardarecu": null, "municipio1": null, "municipi_1": null, "cant_pino": 0, "cant_cipre": 0, "cant_aliso": 0, "cant_encin": 0, "cant_otro": 0 }, "geometry": { "type": "Point", "coordinates": [ -91.28904513, 14.65336405 ] } },
{ "type": "Feature", "properties": { "globalid": "8585e433-8ac3-4c1f-8e9b-972cd69153f8", "nombre_gua": "Ruben Enrique Sumoza Mendoza", "municipio_": "SanJuan La Laguna", "region": "Altiplano Central", "area_prote": "rumcla", "area_pro_1": null, "municipio": "SanJuan La Laguna", "apoyo_fuer": null, "apoyo_fu_1": null, "nombre_are": "Chuacajnom", "tipo_refor": "compromiso_consumo", "area_refor": 15.0, "especies": "otro,aliso", "especie_ot": "Aguacate  jaz   y se observo  brotes de ilamo en el atea", "fecha": "2025-10-22T00:00:00", "hora": "13:19", "observacio": "Esta  persona realizo el compromiso con a guacate  jaz.  Dejo los brotes de  ilamo.", "CreationDa": "2025-10-22T00:00:00", "Creator": null, "EditDate": "2025-10-22T00:00:00", "Editor": null, "consumo_fu": "no", "guardarecu": null, "municipio1": null, "municipi_1": null, "cant_pino": 0, "cant_cipre": 0, "cant_aliso": 0, "cant_encin": 0, "cant_otro": 0 }, "geometry": { "type": "Point", "coordinates": [ -91.305114, 14.68456885 ] } },
{ "type": "Feature", "properties": { "globalid": "7fa759a5-d5c1-435a-9045-bda5241498e1", "nombre_gua": "Henry Regino Méndez Chavajay", "municipio_": "San Pedro La Laguna", "region": "Altiplano Central", "area_prote": "rumcla", "area_pro_1": null, "municipio": "San Pedro La Laguna", "apoyo_fuer": "no", "apoyo_fu_1": null, "nombre_are": "Paquixtan", "tipo_refor": "compromiso_consumo", "area_refor": 0.6, "especies": "pino,aliso,otro", "especie_ot": "Canalillo, tambien hay generacion natural aliso", "fecha": "2025-10-22T00:00:00", "hora": "09:30", "observacio": "hay mucha generacion natural", "CreationDa": "2025-10-22T00:00:00", "Creator": null, "EditDate": "2025-10-22T00:00:00", "Editor": null, "consumo_fu": null, "guardarecu": null, "municipio1": null, "municipi_1": null, "cant_pino": 0, "cant_cipre": 0, "cant_aliso": 0, "cant_encin": 0, "cant_otro": 0 }, "geometry": { "type": "Point", "coordinates": [ -91.28555368, 14.64724195 ] } },
{ "type": "Feature", "properties": { "globalid": "3e683178-f4a7-400f-98a8-f464d2c6b32c", "nombre_gua": "Henry Regino Méndez Chavajay", "municipio_": "San Pedro La Laguna", "region": "Altiplano Central", "area_prote": "rumcla", "area_pro_1": null, "municipio": "San Pedro La Laguna", "apoyo_fuer": "no", "apoyo_fu_1": null, "nombre_are": "Paquixtan", "tipo_refor": "compromiso_consumo", "area_refor": 0.75, "especies": "pino,cipres,aliso", "especie_ot": null, "fecha": "2025-10-22T00:00:00", "hora": "11:24", "observacio": "Si ha cumplido con la reforestacion ha sembrado en monton", "CreationDa": "2025-10-22T00:00:00", "Creator": null, "EditDate": "2025-10-22T00:00:00", "Editor": null, "consumo_fu": null, "guardarecu": null, "municipio1": null, "municipi_1": null, "cant_pino": 0, "cant_cipre": 0, "cant_aliso": 0, "cant_encin": 0, "cant_otro": 0 }, "geometry": { "type": "Point", "coordinates": [ -91.28338155, 14.6466042 ] } },
{ "type": "Feature", "properties": { "globalid": "632aa086-c089-486a-876f-6351223d9f1a", "nombre_gua": "Henry Regino Méndez Chavajay", "municipio_": "San Pedro La Laguna", "region": "Altiplano Central", "area_prote": "rumcla", "area_pro_1": null, "municipio": "San Pedro La Laguna", "apoyo_fuer": "no", "apoyo_fu_1": null, "nombre_are": "Pajoco", "tipo_refor": "compromiso_consumo", "area_refor": 0.75, "especies": "aliso,otro", "especie_ot": "Canalillo", "fecha": "2025-10-22T00:00:00", "hora": "12:10", "observacio": "Hay generacion natural en el area aliso y canalillo", "CreationDa": "2025-10-22T00:00:00", "Creator": null, "EditDate": "2025-10-22T00:00:00", "Editor": null, "consumo_fu": null, "guardarecu": null, "municipio1": null, "municipi_1": null, "cant_pino": 0, "cant_cipre": 0, "cant_aliso": 0, "cant_encin": 0, "cant_otro": 0 }, "geometry": { "type": "Point", "coordinates": [ -91.29084728, 14.6455743 ] } },
{ "type": "Feature", "properties": { "globalid": "6c67a6f8-06b1-4441-93f3-fc26586b381a", "nombre_gua": "Edgar Bartolo Batín Navichoc", "municipio_": "San Pedro La Laguna", "region": "Altiplano Central", "area_prote": "rumcla", "area_pro_1": null, "municipio": "San Pedro La Laguna", "apoyo_fuer": null, "apoyo_fu_1": null, "nombre_are": "Xechimay", "tipo_refor": "compromiso_consumo", "area_refor": 50.0, "especies": "cipres", "especie_ot": null, "fecha": "2025-10-22T00:00:00", "hora": "01:53", "observacio": "Realizado", "CreationDa": "2025-10-22T00:00:00", "Creator": null, "EditDate": "2025-10-22T00:00:00", "Editor": null, "consumo_fu": "no", "guardarecu": null, "municipio1": null, "municipi_1": null, "cant_pino": 0, "cant_cipre": 0, "cant_aliso": 0, "cant_encin": 0, "cant_otro": 0 }, "geometry": { "type": "Point", "coordinates": [ -91.28134472, 14.67727772 ] } },
{ "type": "Feature", "properties": { "globalid": "123254b6-5ea1-4dca-a180-fd855555dc1e", "nombre_gua": "Edgar Bartolo Batín Navichoc", "municipio_": "San Pedro La Laguna", "region": "Altiplano Central", "area_prote": "rumcla", "area_pro_1": null, "municipio": "San Pedro La Laguna", "apoyo_fuer": null, "apoyo_fu_1": null, "nombre_are": "Paxinabaj", "tipo_refor": "compromiso_consumo", "area_refor": 0.0, "especies": "encino,aliso", "especie_ot": null, "fecha": "2025-10-23T00:00:00", "hora": "09:07", "observacio": "Realizado", "CreationDa": "2025-10-23T00:00:00", "Creator": null, "EditDate": "2025-10-23T00:00:00", "Editor": null, "consumo_fu": "no", "guardarecu": null, "municipio1": null, "municipi_1": null, "cant_pino": 0, "cant_cipre": 0, "cant_aliso": 0, "cant_encin": 0, "cant_otro": 0 }, "geometry": { "type": "Point", "coordinates": [ -91.27812825, 14.66483761 ] } },
{ "type": "Feature", "properties": { "globalid": "d115c7b3-34f9-461e-83db-2fd113dc93ff", "nombre_gua": "Henry Regino Méndez Chavajay", "municipio_": "San Pedro La Laguna", "region": "Altiplano Central", "area_prote": "rumcla", "area_pro_1": null, "municipio": "San Pedro La Laguna", "apoyo_fuer": "no", "apoyo_fu_1": null, "nombre_are": "Xekisteel", "tipo_refor": "compromiso_consumo", "area_refor": 0.2, "especies": "pino", "especie_ot": null, "fecha": "2025-10-23T00:00:00", "hora": "10:22", "observacio": "Todo es pino y esta en buenas condiciones", "CreationDa": "2025-10-23T00:00:00", "Creator": null, "EditDate": "2025-10-23T00:00:00", "Editor": null, "consumo_fu": null, "guardarecu": null, "municipio1": null, "municipi_1": null, "cant_pino": 0, "cant_cipre": 0, "cant_aliso": 0, "cant_encin": 0, "cant_otro": 0 }, "geometry": { "type": "Point", "coordinates": [ -91.28935705, 14.66612722 ] } },
{ "type": "Feature", "properties": { "globalid": "bc492d86-9617-415c-9017-41a45d80a29a", "nombre_gua": "Edgar Bartolo Batín Navichoc", "municipio_": "San Pedro La Laguna", "region": "Altiplano Central", "area_prote": "rumcla", "area_pro_1": null, "municipio": "San Pedro La Laguna", "apoyo_fuer": null, "apoyo_fu_1": null, "nombre_are": "Xe sagman", "tipo_refor": "compromiso_consumo", "area_refor": 0.0, "especies": "cipres", "especie_ot": null, "fecha": "2025-10-23T00:00:00", "hora": "11:17", "observacio": "Realizado", "CreationDa": "2025-10-23T00:00:00", "Creator": null, "EditDate": "2025-10-23T00:00:00", "Editor": null, "consumo_fu": "no", "guardarecu": null, "municipio1": null, "municipi_1": null, "cant_pino": 0, "cant_cipre": 0, "cant_aliso": 0, "cant_encin": 0, "cant_otro": 0 }, "geometry": { "type": "Point", "coordinates": [ -91.27323419, 14.68427213 ] } },
{ "type": "Feature", "properties": { "globalid": "38c5a8d8-c2e6-4c29-82d6-f8afa4f6126d", "nombre_gua": "Edgar Bartolo Batín Navichoc", "municipio_": "San Pedro La Laguna", "region": "Altiplano Central", "area_prote": "rumcla", "area_pro_1": null, "municipio": "San Pedro La Laguna", "apoyo_fuer": null, "apoyo_fu_1": null, "nombre_are": "Chuaqenaq", "tipo_refor": "compromiso_consumo", "area_refor": 100.0, "especies": "cipres,aliso", "especie_ot": null, "fecha": "2025-10-24T00:00:00", "hora": "12:13", "observacio": "Realizado", "CreationDa": "2025-10-24T00:00:00", "Creator": null, "EditDate": "2025-10-24T00:00:00", "Editor": null, "consumo_fu": "no", "guardarecu": null, "municipio1": null, "municipi_1": null, "cant_pino": 0, "cant_cipre": 0, "cant_aliso": 0, "cant_encin": 0, "cant_otro": 0 }, "geometry": { "type": "Point", "coordinates": [ -91.28532503, 14.65567183 ] } },
{ "type": "Feature", "properties": { "globalid": "9d1fc2fa-1e28-4a29-901e-3c5a3399c48c", "nombre_gua": "Santos Maurico Vicente Mendoza", "municipio_": "Santa Maria Visitación", "region": "Altiplano Central", "area_prote": "rumcla", "area_pro_1": null, "municipio": "Santa Maria Visitación", "apoyo_fuer": null, "apoyo_fu_1": null, "nombre_are": "Pachali", "tipo_refor": "compromiso_consumo", "area_refor": 100.0, "especies": "pino,aliso", "especie_ot": null, "fecha": "2025-10-09T00:00:00", "hora": "12:55", "observacio": "Reforestacion de Viviana Chavajay Dionisio", "CreationDa": "2025-10-31T00:00:00", "Creator": null, "EditDate": "2025-10-31T00:00:00", "Editor": null, "consumo_fu": "no", "guardarecu": null, "municipio1": null, "municipi_1": null, "cant_pino": 0, "cant_cipre": 0, "cant_aliso": 0, "cant_encin": 0, "cant_otro": 0 }, "geometry": { "type": "Point", "coordinates": [ -91.32132147, 14.72451974 ] } },
{ "type": "Feature", "properties": { "globalid": "8553a2d6-3377-430b-ab74-bdb76d7f8709", "nombre_gua": "Santos Maurico Vicente Mendoza", "municipio_": "Santa Maria Visitación", "region": "Altiplano Central", "area_prote": "rumcla", "area_pro_1": null, "municipio": "Santa Maria Visitación", "apoyo_fuer": null, "apoyo_fu_1": null, "nombre_are": "Chuipoj", "tipo_refor": null, "area_refor": 80.0, "especies": "aliso,pino", "especie_ot": null, "fecha": "2025-10-09T00:00:00", "hora": "11:03", "observacio": "Reforestacion de don Ambrocio Melchor Dionisio", "CreationDa": "2025-10-31T00:00:00", "Creator": null, "EditDate": "2025-10-31T00:00:00", "Editor": null, "consumo_fu": "no", "guardarecu": null, "municipio1": null, "municipi_1": null, "cant_pino": 0, "cant_cipre": 0, "cant_aliso": 0, "cant_encin": 0, "cant_otro": 0 }, "geometry": { "type": "Point", "coordinates": [ -91.32603667, 14.72019 ] } },
{ "type": "Feature", "properties": { "globalid": "92a88497-c54e-4f17-899f-0b170823d9ed", "nombre_gua": "Francisco Sicay Icaj", "municipio_": "Santiago Atitlán", "region": "Altiplano Central", "area_prote": "rumcla", "area_pro_1": null, "municipio": "Santiago Atitlán", "apoyo_fuer": null, "apoyo_fu_1": null, "nombre_are": "Chu Eskaleer, Santiago Atitlán", "tipo_refor": "compromiso_consumo", "area_refor": 100.0, "especies": "aliso", "especie_ot": null, "fecha": "2025-11-04T00:00:00", "hora": "11:04", "observacio": "Se observó el buen crecimiento de los arbolitos en el area, y les di las recomendaciones para el mantentenimiento para que lo limpian de malezas.", "CreationDa": "2025-11-05T00:00:00", "Creator": null, "EditDate": "2025-11-05T00:00:00", "Editor": null, "consumo_fu": "no", "guardarecu": null, "municipio1": null, "municipi_1": null, "cant_pino": 0, "cant_cipre": 0, "cant_aliso": 0, "cant_encin": 0, "cant_otro": 0 }, "geometry": { "type": "Point", "coordinates": [ -91.28137104, 14.61546358 ] } },
{ "type": "Feature", "properties": { "globalid": "d7af8c5f-ebe4-4326-906f-940c74cb10ed", "nombre_gua": "Henry Regino Méndez Chavajay", "municipio_": "San Pedro La Laguna", "region": "Altiplano Central", "area_prote": "rumcla", "area_pro_1": null, "municipio": "San Pedro La Laguna", "apoyo_fuer": "no", "apoyo_fu_1": null, "nombre_are": "Tiaqpobon", "tipo_refor": "compromiso_consumo", "area_refor": 0.2, "especies": "aliso,otro", "especie_ot": "Ilamo amarillo", "fecha": "2025-11-07T00:00:00", "hora": "16:10", "observacio": "Hay mucha generacion natural.", "CreationDa": "2025-11-10T00:00:00", "Creator": null, "EditDate": "2025-11-10T00:00:00", "Editor": null, "consumo_fu": null, "guardarecu": null, "municipio1": null, "municipi_1": null, "cant_pino": 0, "cant_cipre": 0, "cant_aliso": 0, "cant_encin": 0, "cant_otro": 0 }, "geometry": { "type": "Point", "coordinates": [ -91.3094222, 14.6895497 ] } },
{ "type": "Feature", "properties": { "globalid": "be6aab7b-0a23-4849-8f0e-1a0d17532c32", "nombre_gua": "Henry Regino Méndez Chavajay", "municipio_": "San Pedro La Laguna", "region": "Altiplano Central", "area_prote": "rumcla", "area_pro_1": null, "municipio": "San Pedro La Laguna", "apoyo_fuer": "no", "apoyo_fu_1": null, "nombre_are": "Tiaqpobon", "tipo_refor": "compromiso_consumo", "area_refor": 0.15, "especies": "aliso", "especie_ot": null, "fecha": "2025-11-10T00:00:00", "hora": "09:20", "observacio": "Hay mucha reforestacion natural", "CreationDa": "2025-11-10T00:00:00", "Creator": null, "EditDate": "2025-11-10T00:00:00", "Editor": null, "consumo_fu": null, "guardarecu": null, "municipio1": null, "municipi_1": null, "cant_pino": 0, "cant_cipre": 0, "cant_aliso": 0, "cant_encin": 0, "cant_otro": 0 }, "geometry": { "type": "Point", "coordinates": [ -91.28342248, 14.66768032 ] } },
{ "type": "Feature", "properties": { "globalid": "35a1ee2e-511a-4574-bc56-a62d1e8ebfc7", "nombre_gua": "Edgar Bartolo Batín Navichoc", "municipio_": "San Pedro La Laguna", "region": "Altiplano Central", "area_prote": "rumcla", "area_pro_1": null, "municipio": "San Pedro La Laguna", "apoyo_fuer": null, "apoyo_fu_1": null, "nombre_are": "Pamaczul San Pedro la laguna", "tipo_refor": "compromiso_consumo", "area_refor": 2500.0, "especies": "aliso", "especie_ot": null, "fecha": "2025-11-10T00:00:00", "hora": "09:57", "observacio": "Se realizo la reforestacion por compromiso del Señor Felix Gonzalez y Gonzalez", "CreationDa": "2025-11-10T00:00:00", "Creator": null, "EditDate": "2025-11-10T00:00:00", "Editor": null, "consumo_fu": "no", "guardarecu": null, "municipio1": null, "municipi_1": null, "cant_pino": 0, "cant_cipre": 0, "cant_aliso": 0, "cant_encin": 0, "cant_otro": 0 }, "geometry": { "type": "Point", "coordinates": [ -91.29946192, 14.65354683 ] } },
{ "type": "Feature", "properties": { "globalid": "804e7097-c8e1-47af-ac27-c9f6712b8926", "nombre_gua": "Henry Regino Méndez Chavajay", "municipio_": "San Pedro La Laguna", "region": "Altiplano Central", "area_prote": "rumcla", "area_pro_1": null, "municipio": "San Pedro La Laguna", "apoyo_fuer": null, "apoyo_fu_1": null, "nombre_are": "Chuitiaqay", "tipo_refor": "compromiso_consumo", "area_refor": 1000.0, "especies": "pino", "especie_ot": null, "fecha": "2025-11-14T00:00:00", "hora": "11:50", "observacio": "la usuaria si hiso la reforestacion", "CreationDa": "2025-11-14T00:00:00", "Creator": null, "EditDate": "2025-11-14T00:00:00", "Editor": null, "consumo_fu": "no", "guardarecu": null, "municipio1": null, "municipi_1": null, "cant_pino": 0, "cant_cipre": 0, "cant_aliso": 0, "cant_encin": 0, "cant_otro": 0 }, "geometry": { "type": "Point", "coordinates": [ -91.28882837, 14.67320895 ] } },
{ "type": "Feature", "properties": { "globalid": "a05bdaef-17c6-4402-858b-fb56bf9b8b91", "nombre_gua": "Jorge Solis Xingo", "municipio_": "Panajachel", "region": "Altiplano Central", "area_prote": "rumcla", "area_pro_1": null, "municipio": "Panajachel", "apoyo_fuer": null, "apoyo_fu_1": null, "nombre_are": "Parque Sakiche San Andres Semetabaj", "tipo_refor": "compromiso_consumo", "area_refor": 1080.0, "especies": "cipres,aliso,otro", "especie_ot": "Fresno sedrillo", "fecha": "2025-11-19T00:00:00", "hora": "09:06", "observacio": "Se atendio este consumo a la cual se realizo el monitoreode reforestacion por compromiso ya que no abia guardarecurso asignado a ese municipio", "CreationDa": "2025-11-19T00:00:00", "Creator": null, "EditDate": "2025-11-19T00:00:00", "Editor": null, "consumo_fu": "no", "guardarecu": null, "municipio1": null, "municipi_1": null, "cant_pino": 0, "cant_cipre": 0, "cant_aliso": 0, "cant_encin": 0, "cant_otro": 0 }, "geometry": { "type": "Point", "coordinates": [ -91.11993458, 14.7317086 ] } },
{ "type": "Feature", "properties": { "globalid": "b1f00670-8b5e-46b2-8777-aec78f00bfb5", "nombre_gua": "Jorge Solis Xingo", "municipio_": "Panajachel", "region": "Altiplano Central", "area_prote": "rumcla", "area_pro_1": null, "municipio": "Panajachel", "apoyo_fuer": null, "apoyo_fu_1": null, "nombre_are": "Caserio San Luis del Municipio de Panajachel", "tipo_refor": "compromiso_consumo", "area_refor": 630.0, "especies": "encino", "especie_ot": null, "fecha": "2025-11-19T00:00:00", "hora": "10:38", "observacio": "Esta inspección lo realize solo ya que el propietario no pudo acompañarme", "CreationDa": "2025-11-19T00:00:00", "Creator": null, "EditDate": "2025-11-19T00:00:00", "Editor": null, "consumo_fu": "no", "guardarecu": null, "municipio1": null, "municipi_1": null, "cant_pino": 0, "cant_cipre": 0, "cant_aliso": 0, "cant_encin": 0, "cant_otro": 0 }, "geometry": { "type": "Point", "coordinates": [ -91.12913644, 14.76235663 ] } },
{ "type": "Feature", "properties": { "globalid": "7b20c9a9-5742-47b4-bdc2-020d3af18484", "nombre_gua": "Francisco Sicay Icaj", "municipio_": "Santiago Atitlán", "region": "Altiplano Central", "area_prote": "rumcla", "area_pro_1": null, "municipio": "Santiago Atitlán", "apoyo_fuer": null, "apoyo_fu_1": null, "nombre_are": "Pa Koo'k", "tipo_refor": "compromiso_consumo", "area_refor": 3.0, "especies": "aliso", "especie_ot": null, "fecha": "2025-08-28T00:00:00", "hora": "12:38", "observacio": null, "CreationDa": "2025-12-16T00:00:00", "Creator": null, "EditDate": "2025-12-16T00:00:00", "Editor": null, "consumo_fu": "no", "guardarecu": null, "municipio1": null, "municipi_1": null, "cant_pino": 0, "cant_cipre": 0, "cant_aliso": 0, "cant_encin": 0, "cant_otro": 0 }, "geometry": { "type": "Point", "coordinates": [ -91.21163233, 14.5923368 ] } },
{ "type": "Feature", "properties": { "globalid": "a0d99d63-6e0f-4b57-845d-69cadd0397be", "nombre_gua": "Francisco Sicay Icaj", "municipio_": "Santiago Atitlán", "region": "Altiplano Central", "area_prote": "rumcla", "area_pro_1": null, "municipio": "Santiago Atitlán", "apoyo_fuer": null, "apoyo_fu_1": null, "nombre_are": "Pa Taam, Santiago Atitlán", "tipo_refor": "compromiso_consumo", "area_refor": 1.0, "especies": "aliso", "especie_ot": null, "fecha": "2025-11-20T00:00:00", "hora": "12:58", "observacio": null, "CreationDa": "2025-12-16T00:00:00", "Creator": null, "EditDate": "2025-12-16T00:00:00", "Editor": null, "consumo_fu": "no", "guardarecu": null, "municipio1": null, "municipi_1": null, "cant_pino": 0, "cant_cipre": 0, "cant_aliso": 0, "cant_encin": 0, "cant_otro": 0 }, "geometry": { "type": "Point", "coordinates": [ -91.19321729, 14.60209302 ] } },
{ "type": "Feature", "properties": { "globalid": "feb08db7-9437-4b25-8024-b72b3e3e6f90", "nombre_gua": "Francisco Sicay Icaj", "municipio_": "Santiago Atitlán", "region": "Altiplano Central", "area_prote": "rumcla", "area_pro_1": null, "municipio": "Santiago Atitlán", "apoyo_fuer": null, "apoyo_fu_1": null, "nombre_are": "Chu Skaleer, Santiago Atitlán", "tipo_refor": "compromiso_consumo", "area_refor": 2.0, "especies": "aliso", "especie_ot": null, "fecha": "2025-11-05T00:00:00", "hora": "11:58", "observacio": null, "CreationDa": "2025-12-16T00:00:00", "Creator": null, "EditDate": "2025-12-16T00:00:00", "Editor": null, "consumo_fu": "no", "guardarecu": null, "municipio1": null, "municipi_1": null, "cant_pino": 0, "cant_cipre": 0, "cant_aliso": 0, "cant_encin": 0, "cant_otro": 0 }, "geometry": { "type": "Point", "coordinates": [ -91.28854932, 14.61195093 ] } },
{ "type": "Feature", "properties": { "globalid": "0c0f70d4-c604-4fe8-9a8f-f468d32665f6", "nombre_gua": "Ezequiel Iboy Bacajol", "municipio_": "Acatenango", "region": "Altiplano Central", "area_prote": "fuera_rumcla", "area_pro_1": "Momtaña soco acatenango", "municipio": "Acatenango", "apoyo_fuer": "no", "apoyo_fu_1": null, "nombre_are": "Parashak", "tipo_refor": "compromiso_consumo", "area_refor": 25.6, "especies": "pino", "especie_ot": null, "fecha": "2025-09-03T00:00:00", "hora": "13:30", "observacio": null, "CreationDa": "2026-02-05T00:00:00", "Creator": null, "EditDate": "2026-02-05T00:00:00", "Editor": null, "consumo_fu": null, "guardarecu": null, "municipio1": null, "municipi_1": null, "cant_pino": 0, "cant_cipre": 0, "cant_aliso": 0, "cant_encin": 0, "cant_otro": 0 }, "geometry": { "type": "Point", "coordinates": [ -91.18481851, 14.76847409 ] } },
{ "type": "Feature", "properties": { "globalid": "8154cb37-efdd-4456-a2b0-2eb03c15682b", "nombre_gua": "Ezequiel Iboy Bacajol", "municipio_": "Acatenango", "region": "Altiplano Central", "area_prote": "fuera_rumcla", "area_pro_1": null, "municipio": "Acatenango", "apoyo_fuer": null, "apoyo_fu_1": null, "nombre_are": "Los chapas y la concordia aldea los planes acatenango", "tipo_refor": "compromiso_consumo", "area_refor": 160.0, "especies": "pino,cipres,encino", "especie_ot": null, "fecha": "2026-02-02T00:00:00", "hora": "08:30", "observacio": "Se realizo el monitoreo de la reforestacion del 2025 en las areas los chapas y la concordia en aldea los planes", "CreationDa": "2026-02-05T00:00:00", "Creator": null, "EditDate": "2026-02-05T00:00:00", "Editor": null, "consumo_fu": "no", "guardarecu": null, "municipio1": null, "municipi_1": null, "cant_pino": 0, "cant_cipre": 0, "cant_aliso": 0, "cant_encin": 0, "cant_otro": 0 }, "geometry": { "type": "Point", "coordinates": [ -90.90626167, 14.555795 ] } },
{ "type": "Feature", "properties": { "globalid": "4cffb490-3051-41b6-ab5d-d7bb0959bc89", "nombre_gua": "Domingo Culum Poron", "municipio_": "San Pablo La Laguna", "region": "Altiplano Central", "area_prote": "rumcla", "area_pro_1": null, "municipio": "San Pablo La Laguna", "apoyo_fuer": null, "apoyo_fu_1": null, "nombre_are": "Parugacampo", "tipo_refor": null, "area_refor": 950.0, "especies": "cipres,aliso", "especie_ot": null, "fecha": "2026-03-04T00:00:00", "hora": "08:00", "observacio": "Se acompaño al tecnico de Amigos del lago en el monitoro de las reforestacoones voluntarias del 2025", "CreationDa": "2026-03-05T00:00:00", "Creator": null, "EditDate": "2026-03-05T00:00:00", "Editor": null, "consumo_fu": null, "guardarecu": null, "municipio1": null, "municipi_1": null, "cant_pino": 0, "cant_cipre": 0, "cant_aliso": 0, "cant_encin": 0, "cant_otro": 0 }, "geometry": { "type": "Point", "coordinates": [ -91.27590167, 14.71777333 ] } },
{ "type": "Feature", "properties": { "globalid": "9f44c532-4a90-4e5a-82d1-681ead2e2269", "nombre_gua": "Domingo Culum Poron", "municipio_": "San Pablo La Laguna", "region": "Altiplano Central", "area_prote": "rumcla", "area_pro_1": null, "municipio": "San Pablo La Laguna", "apoyo_fuer": null, "apoyo_fu_1": null, "nombre_are": "Xepojp", "tipo_refor": "compromiso_consumo", "area_refor": 750.0, "especies": "cipres,aliso,pino", "especie_ot": null, "fecha": "2026-03-04T00:00:00", "hora": null, "observacio": "Se acompaño al tecnivo de Amigos del Lago en el monitoro de las reforestaciones voluntaia del 2025", "CreationDa": "2026-03-05T00:00:00", "Creator": null, "EditDate": "2026-03-05T00:00:00", "Editor": null, "consumo_fu": null, "guardarecu": null, "municipio1": null, "municipi_1": null, "cant_pino": 0, "cant_cipre": 0, "cant_aliso": 0, "cant_encin": 0, "cant_otro": 0 }, "geometry": { "type": "Point", "coordinates": [ -91.27318333, 14.72882833 ] } },
{ "type": "Feature", "properties": { "globalid": "730ebdc7-8487-457e-bb44-5918a93a79fd", "nombre_gua": "Rafaél Enrique Chocoy Chocoy", "municipio_": "Santa Clara La Laguna", "region": "Altiplano Central", "area_prote": "rumcla", "area_pro_1": null, "municipio": "Santa Clara La Laguna", "apoyo_fuer": null, "apoyo_fu_1": null, "nombre_are": "Nima chalip", "tipo_refor": "compromiso_consumo", "area_refor": 0.0, "especies": "pino", "especie_ot": null, "fecha": "2026-06-01T00:00:00", "hora": "10:40", "observacio": "No ha cembrado todavia", "CreationDa": "2026-06-01T00:00:00", "Creator": null, "EditDate": "2026-06-01T00:00:00", "Editor": null, "consumo_fu": "no", "guardarecu": null, "municipio1": null, "municipi_1": null, "cant_pino": 0, "cant_cipre": 0, "cant_aliso": 0, "cant_encin": 0, "cant_otro": 0 }, "geometry": { "type": "Point", "coordinates": [ -91.32044203, 14.73558368 ] } },
{ "type": "Feature", "properties": { "globalid": "332f80a2-21e6-499e-9085-b54dde1ebe07", "nombre_gua": "Juan Marcos Saquic", "municipio_": "Santa Lucia Utatlán", "region": "Altiplano Central", "area_prote": "rumcla", "area_pro_1": null, "municipio": "Santa Lucia Utatlán", "apoyo_fuer": null, "apoyo_fu_1": null, "nombre_are": "Los Angeles Pahaj", "tipo_refor": null, "area_refor": 0.2, "especies": "pino,aliso", "especie_ot": null, "fecha": "2026-05-25T00:00:00", "hora": "08:30", "observacio": "No es por consumo si no que  es reforestacion voluntaria", "CreationDa": "2026-06-09T00:00:00", "Creator": null, "EditDate": "2026-06-09T00:00:00", "Editor": null, "consumo_fu": "no", "guardarecu": null, "municipio1": null, "municipi_1": null, "cant_pino": 100, "cant_cipre": 0, "cant_aliso": 150, "cant_encin": 0, "cant_otro": 0 }, "geometry": { "type": "Point", "coordinates": [ -91.29499505, 14.79331273 ] } },
{ "type": "Feature", "properties": { "globalid": "9a9a253e-9df5-4573-93a9-d241082096b9", "nombre_gua": "Diego Chacom Soben", "municipio_": "Santa Clara La Laguna", "region": "Altiplano Central", "area_prote": "rumcla", "area_pro_1": null, "municipio": "Santa Clara La Laguna", "apoyo_fuer": null, "apoyo_fu_1": null, "nombre_are": "Taclol", "tipo_refor": "compromiso_consumo", "area_refor": 0.0, "especies": "pino,aliso", "especie_ot": null, "fecha": "2026-06-05T00:00:00", "hora": "09:09", "observacio": "La señora Francisca Garcia Vasquez, no ha cumplido de sembrar la cantidad de 30 arbolitos de pino y 10 de aliso.", "CreationDa": "2026-06-11T00:00:00", "Creator": null, "EditDate": "2026-06-11T00:00:00", "Editor": null, "consumo_fu": "no", "guardarecu": null, "municipio1": null, "municipi_1": null, "cant_pino": 0, "cant_cipre": 0, "cant_aliso": 0, "cant_encin": 0, "cant_otro": 0 }, "geometry": { "type": "Point", "coordinates": [ -91.31802668, 14.74875552 ] } },
{ "type": "Feature", "properties": { "globalid": "0ced02fe-a758-4d9b-ab7f-15e6f3179dd8", "nombre_gua": "Diego Chacom Soben", "municipio_": "Santa Clara La Laguna", "region": "Altiplano Central", "area_prote": "rumcla", "area_pro_1": null, "municipio": "Santa Clara La Laguna", "apoyo_fuer": null, "apoyo_fu_1": null, "nombre_are": "Taclol", "tipo_refor": "compromiso_consumo", "area_refor": 0.0, "especies": "pino", "especie_ot": null, "fecha": "2026-06-05T00:00:00", "hora": "09:57", "observacio": "El señor Juan Garcia no ha cumplido con el compromiso de sembrar la cantidad de 70 arbolitos de especie pino.", "CreationDa": "2026-06-11T00:00:00", "Creator": null, "EditDate": "2026-06-11T00:00:00", "Editor": null, "consumo_fu": "no", "guardarecu": null, "municipio1": null, "municipi_1": null, "cant_pino": 0, "cant_cipre": 0, "cant_aliso": 0, "cant_encin": 0, "cant_otro": 0 }, "geometry": { "type": "Point", "coordinates": [ -91.32029612, 14.74663971 ] } },
{ "type": "Feature", "properties": { "globalid": "6f93e39f-6c87-41ec-aafb-57e797993021", "nombre_gua": "Domingo Culum Poron", "municipio_": "San Pablo La Laguna", "region": "Altiplano Central", "area_prote": "rumcla", "area_pro_1": null, "municipio": "San Pablo La Laguna", "apoyo_fuer": null, "apoyo_fu_1": null, "nombre_are": "Xepojp, San Pablo la laguna", "tipo_refor": null, "area_refor": 1031.25, "especies": "pino,aliso,encino", "especie_ot": null, "fecha": "2026-06-11T00:00:00", "hora": "09:03", "observacio": "Es una reforestacion Volumtaria en coordinacion con el IMEBC en donde participaron 30 personas", "CreationDa": "2026-06-13T00:00:00", "Creator": null, "EditDate": "2026-06-13T00:00:00", "Editor": null, "consumo_fu": "no", "guardarecu": null, "municipio1": null, "municipi_1": null, "cant_pino": 45, "cant_cipre": 0, "cant_aliso": 60, "cant_encin": 60, "cant_otro": 0 }, "geometry": { "type": "Point", "coordinates": [ -91.27517167, 14.72890667 ] } },
{ "type": "Feature", "properties": { "globalid": "d7e07430-f95f-423e-ab95-90e359892657", "nombre_gua": "Juan Marcos Saquic", "municipio_": "Santa Lucia Utatlán", "region": "Altiplano Central", "area_prote": "rumcla", "area_pro_1": null, "municipio": "Santa Lucia Utatlán", "apoyo_fuer": null, "apoyo_fu_1": null, "nombre_are": "Los Planes de Chuchexic", "tipo_refor": null, "area_refor": 0.5, "especies": "pino,aliso,encino", "especie_ot": null, "fecha": "2026-06-05T00:00:00", "hora": "09:53", "observacio": "En coordinacion con la meza técnica municipal se dio el Lanzamiento de Reforestaciones 2026 y asi mismo conmemoracion del dia del medio ambiente", "CreationDa": "2026-06-24T00:00:00", "Creator": null, "EditDate": "2026-06-24T00:00:00", "Editor": null, "consumo_fu": "no", "guardarecu": null, "municipio1": null, "municipi_1": null, "cant_pino": 150, "cant_cipre": 0, "cant_aliso": 150, "cant_encin": 60, "cant_otro": 0 }, "geometry": { "type": "Point", "coordinates": [ -91.25939581, 14.81904801 ] } },
{ "type": "Feature", "properties": { "globalid": "700686ec-ed93-4238-bf22-29c9bffb5fbf", "nombre_gua": "Juan Marcos Saquic", "municipio_": "Santa Lucia Utatlán", "region": "Altiplano Central", "area_prote": "rumcla", "area_pro_1": null, "municipio": "Santa Lucia Utatlán", "apoyo_fuer": null, "apoyo_fu_1": null, "nombre_are": "Parracana Cantón Chuchexic", "tipo_refor": "compromiso_consumo", "area_refor": 0.1, "especies": "pino,cipres", "especie_ot": null, "fecha": "2026-06-10T00:00:00", "hora": "08:35", "observacio": "Se monitoreo compromiso de reforestacion con el señor Santos Jorge Cul Saloj", "CreationDa": "2026-06-24T00:00:00", "Creator": null, "EditDate": "2026-06-24T00:00:00", "Editor": null, "consumo_fu": "no", "guardarecu": null, "municipio1": null, "municipi_1": null, "cant_pino": 38, "cant_cipre": 4, "cant_aliso": 0, "cant_encin": 0, "cant_otro": 0 }, "geometry": { "type": "Point", "coordinates": [ -91.270345, 14.81403667 ] } },
{ "type": "Feature", "properties": { "globalid": "56af7d35-e27a-4878-850c-70232f2bff6c", "nombre_gua": "Domingo Culum Poron", "municipio_": "San Pablo La Laguna", "region": "Altiplano Central", "area_prote": "rumcla", "area_pro_1": null, "municipio": "San Pablo La Laguna", "apoyo_fuer": null, "apoyo_fu_1": null, "nombre_are": "Panimabon, San Pablo", "tipo_refor": "compromiso_consumo", "area_refor": 937.5, "especies": "pino,cipres,aliso", "especie_ot": null, "fecha": "2026-06-26T00:00:00", "hora": "07:28", "observacio": "Esta actividad fue coordino con la Asociacion ODIM y es una Reforestacion Voluluntaria en un terreno privado", "CreationDa": "2026-06-27T00:00:00", "Creator": null, "EditDate": "2026-06-27T00:00:00", "Editor": null, "consumo_fu": "no", "guardarecu": null, "municipio1": null, "municipi_1": null, "cant_pino": 50, "cant_cipre": 50, "cant_aliso": 50, "cant_encin": 0, "cant_otro": 0 }, "geometry": { "type": "Point", "coordinates": [ -91.28471167, 14.72570167 ] } },
{ "type": "Feature", "properties": { "globalid": "8a4e2e25-26e8-456d-9551-83dca07eff16", "nombre_gua": "Domingo Culum Poron", "municipio_": "San Pablo La Laguna", "region": "Altiplano Central", "area_prote": "rumcla", "area_pro_1": null, "municipio": "San Marcos La Laguna", "apoyo_fuer": null, "apoyo_fu_1": null, "nombre_are": "Pachupak San Marcos", "tipo_refor": null, "area_refor": 450.0, "especies": "aliso,encino,otro", "especie_ot": "Nogal", "fecha": "2026-07-02T00:00:00", "hora": "09:09", "observacio": "Es una reforestacion Voluntaria que se ralizo en un terreno privado con la participacion de 4 personas, Voluntarios, MAGA y CONAP", "CreationDa": "2026-07-03T00:00:00", "Creator": null, "EditDate": "2026-07-03T00:00:00", "Editor": null, "consumo_fu": "no", "guardarecu": null, "municipio1": null, "municipi_1": null, "cant_pino": 0, "cant_cipre": 0, "cant_aliso": 15, "cant_encin": 15, "cant_otro": 20 }, "geometry": { "type": "Point", "coordinates": [ 0.0, 0.0 ] } },
{ "type": "Feature", "properties": { "globalid": "d8b5b044-f319-4428-b4d0-ff8782ca7938", "nombre_gua": "Rafaél Enrique Chocoy Chocoy", "municipio_": "Santa Clara La Laguna", "region": "Altiplano Central", "area_prote": "rumcla", "area_pro_1": null, "municipio": "Santa Clara La Laguna", "apoyo_fuer": null, "apoyo_fu_1": null, "nombre_are": "Puwi juyup", "tipo_refor": "compromiso_consumo", "area_refor": 1.3, "especies": "pino,aliso", "especie_ot": null, "fecha": "2026-07-13T00:00:00", "hora": "10:11", "observacio": "Se cumplio con el compromiso de reforestacion", "CreationDa": "2026-07-13T00:00:00", "Creator": null, "EditDate": "2026-07-13T00:00:00", "Editor": null, "consumo_fu": "no", "guardarecu": null, "municipio1": null, "municipi_1": null, "cant_pino": 20, "cant_cipre": 0, "cant_aliso": 10, "cant_encin": 0, "cant_otro": 0 }, "geometry": { "type": "Point", "coordinates": [ -91.30125382, 14.7561897 ] } },
{ "type": "Feature", "properties": { "globalid": "a4250357-ecf3-4840-aa90-ea45912fafcd", "nombre_gua": "Bernabé López Sajvín", "municipio_": "Santa Catarina Palopó", "region": "Altiplano Central", "area_prote": "rumcla", "area_pro_1": null, "municipio": "Santa Catarina Palopó", "apoyo_fuer": null, "apoyo_fu_1": null, "nombre_are": "Pa kissis, caserio xepec, santa catarina palopo", "tipo_refor": "compromiso_consumo", "area_refor": 1225.0, "especies": "pino,encino", "especie_ot": null, "fecha": "2026-07-13T00:00:00", "hora": "11:14", "observacio": "El dia de hoy se inspecciono una reforestacion por compromiso de un aprovechamiento de tres arboles, por el señor Santiago Nimacachi", "CreationDa": "2026-07-15T00:00:00", "Creator": "lisandroalvaradopol_aala", "EditDate": "2026-07-15T00:00:00", "Editor": "lisandroalvaradopol_aala", "consumo_fu": "no", "guardarecu": null, "municipio1": null, "municipi_1": null, "cant_pino": 15, "cant_cipre": 0, "cant_aliso": 0, "cant_encin": 15, "cant_otro": 0 }, "geometry": { "type": "Point", "coordinates": [ -91.12039294, 14.72211635 ] } },
{ "type": "Feature", "properties": { "globalid": "261e321b-6426-4617-b54c-d172d3bd8bd3", "nombre_gua": "Jorge Solis Xingo", "municipio_": "Panajachel", "region": "Altiplano Central", "area_prote": "rumcla", "area_pro_1": null, "municipio": "Panajachel", "apoyo_fuer": null, "apoyo_fu_1": "San Andrés Semetabaj", "nombre_are": "Aldea Xejuyu Primero", "tipo_refor": "compromiso_consumo", "area_refor": 1800.0, "especies": "otro,aliso,encino", "especie_ot": "Fresno,ilamo amarillo, nogal,", "fecha": "2026-07-15T00:00:00", "hora": "13:12", "observacio": "La señora Yuliana Estefana Sinay Juarez cumplio con la reforestacion del consumo forestal familiar que le fue autorizado de 20 arboles la cual realizo la siembra de 250 arboles ago mencionar que en su momento el municipio no contaba con guardarecursos", "CreationDa": "2026-07-16T00:00:00", "Creator": null, "EditDate": "2026-07-16T00:00:00", "Editor": null, "consumo_fu": "si", "guardarecu": "Elvis Omar Garcia Andrade", "municipio1": "San Andrés Semetabaj", "municipi_1": "San Andrés Semetabaj", "cant_pino": 0, "cant_cipre": 0, "cant_aliso": 50, "cant_encin": 100, "cant_otro": 100 }, "geometry": { "type": "Point", "coordinates": [ -91.12137502, 14.74071797 ] } },
{ "type": "Feature", "properties": { "globalid": "b5ef24f1-440e-4e2e-88b2-e458998a8f7d", "nombre_gua": "Jorge Solis Xingo", "municipio_": "Panajachel", "region": "Altiplano Central", "area_prote": "rumcla", "area_pro_1": null, "municipio": "Panajachel", "apoyo_fuer": null, "apoyo_fu_1": "San Andrés Semetabaj", "nombre_are": "Aldea Xejuyu Primero", "tipo_refor": "compromiso_consumo", "area_refor": 1800.0, "especies": "otro,aliso,encino", "especie_ot": "Nogal, Fresno, Ilamo amarillo,", "fecha": "2026-07-15T00:00:00", "hora": "13:11", "observacio": "El señor Dimas Noé Sacalxot cumlio con la reforestacion de 250 arboles por el consumo forestal familiar de 20 arboles que le fue autorizado el año 2025 y ago mensionar que en su momento el municipio no contaba co guardarecursos", "CreationDa": "2026-07-16T00:00:00", "Creator": null, "EditDate": "2026-07-16T00:00:00", "Editor": null, "consumo_fu": "si", "guardarecu": "Elvis Omar Garcia Andrade", "municipio1": "San Andrés Semetabaj", "municipi_1": "San Andrés Semetabaj", "cant_pino": 0, "cant_cipre": 0, "cant_aliso": 100, "cant_encin": 100, "cant_otro": 50 }, "geometry": { "type": "Point", "coordinates": [ -91.1215492, 14.74092913 ] } },
{ "type": "Feature", "properties": { "globalid": "9f92e804-5518-496a-b8fa-51cfda41a51a", "nombre_gua": "Jorge Solis Xingo", "municipio_": "Panajachel", "region": "Altiplano Central", "area_prote": "rumcla", "area_pro_1": null, "municipio": "Panajachel", "apoyo_fuer": null, "apoyo_fu_1": "Barrio las Cruzes San Andres Semetabaj", "nombre_are": "Barrio las Cruzes San Andres Semetabaj", "tipo_refor": "compromiso_consumo", "area_refor": 2880.0, "especies": "pino", "especie_ot": null, "fecha": "2026-07-23T00:00:00", "hora": "08:08", "observacio": "En su momento no se contava con guardarecursos en el municipio", "CreationDa": "2026-07-23T00:00:00", "Creator": null, "EditDate": "2026-07-23T00:00:00", "Editor": null, "consumo_fu": "si", "guardarecu": "Elvis Omar Garcia Andrade", "municipio1": "San Andrés Semetabaj", "municipi_1": "San Andrés Semetabaj", "cant_pino": 320, "cant_cipre": 0, "cant_aliso": 0, "cant_encin": 0, "cant_otro": 0 }, "geometry": { "type": "Point", "coordinates": [ -91.11379542, 14.73355067 ] } },
{ "type": "Feature", "properties": { "globalid": "cdddc88e-4443-4022-8735-a3d92a850ed2", "nombre_gua": "Jose Octavio Xitamul Recinos", "municipio_": "San José Chacaya", "region": "Altiplano Central", "area_prote": "rumcla", "area_pro_1": null, "municipio": "San José Chacaya", "apoyo_fuer": null, "apoyo_fu_1": null, "nombre_are": "El Arenal", "tipo_refor": "compromiso_consumo", "area_refor": 760.0, "especies": "pino,aliso,encino", "especie_ot": null, "fecha": "2026-07-14T00:00:00", "hora": "16:03", "observacio": null, "CreationDa": "2026-07-23T00:00:00", "Creator": null, "EditDate": "2026-07-23T00:00:00", "Editor": null, "consumo_fu": "no", "guardarecu": null, "municipio1": null, "municipi_1": null, "cant_pino": 200, "cant_cipre": 0, "cant_aliso": 300, "cant_encin": 260, "cant_otro": 0 }, "geometry": { "type": "Point", "coordinates": [ -91.220305, 14.776725 ] } },
{ "type": "Feature", "properties": { "globalid": "d10d3c2f-c513-4af2-951f-b9d6d933700e", "nombre_gua": "Jorge Solis Xingo", "municipio_": "Panajachel", "region": "Altiplano Central", "area_prote": "rumcla", "area_pro_1": null, "municipio": "Panajachel", "apoyo_fuer": null, "apoyo_fu_1": "Lomas de Atitlán San Andrés Semetabaj", "nombre_are": "Colonia Lomas de Atitán", "tipo_refor": "compromiso_consumo", "area_refor": 270.0, "especies": "otro", "especie_ot": "Timbuque, Taray, Ilamo amarillo, Fresno.", "fecha": "2026-07-23T00:00:00", "hora": "16:33", "observacio": "En su momento no abia guardarecursos en el municipio", "CreationDa": "2026-07-24T00:00:00", "Creator": null, "EditDate": "2026-07-24T00:00:00", "Editor": null, "consumo_fu": "si", "guardarecu": "Elvis Omar Garcia Andrade", "municipio1": "San Andrés Semetabaj", "municipi_1": "San Andrés Semetabaj", "cant_pino": 0, "cant_cipre": 0, "cant_aliso": 0, "cant_encin": 0, "cant_otro": 30 }, "geometry": { "type": "Point", "coordinates": [ -91.1388529, 14.74614507 ] } },
{ "type": "Feature", "properties": { "globalid": "b7906289-6ea0-4989-ad60-a3cad83ef71f", "nombre_gua": "Santos Maurico Vicente Mendoza", "municipio_": "Santa Maria Visitación", "region": "Altiplano Central", "area_prote": "rumcla", "area_pro_1": null, "municipio": "Santa Maria Visitacion", "apoyo_fuer": null, "apoyo_fu_1": null, "nombre_are": "Camino a Patum, Montecristo", "tipo_refor": "compromiso_consumo", "area_refor": 300.0, "especies": "pino,aliso,encino", "especie_ot": null, "fecha": "2026-07-10T00:00:00", "hora": "11:41", "observacio": null, "CreationDa": "2026-07-27T00:00:00", "Creator": null, "EditDate": "2026-07-27T00:00:00", "Editor": null, "consumo_fu": "no", "guardarecu": null, "municipio1": null, "municipi_1": null, "cant_pino": 30, "cant_cipre": 0, "cant_aliso": 20, "cant_encin": 15, "cant_otro": 0 }, "geometry": { "type": "Point", "coordinates": [ -91.32602516, 14.69635908 ] } },
{ "type": "Feature", "properties": { "globalid": "653cdba6-04d6-4923-837e-74e2e75ed63b", "nombre_gua": "Jose Octavio Xitamul Recinos", "municipio_": "San José Chacaya", "region": "Altiplano Central", "area_prote": "rumcla", "area_pro_1": null, "municipio": "San José Chacaya", "apoyo_fuer": null, "apoyo_fu_1": null, "nombre_are": "Caserio parromero", "tipo_refor": "compromiso_consumo", "area_refor": 1400.0, "especies": "pino,aliso,encino,otro", "especie_ot": "Fresno, nogal y jaboncillo", "fecha": "2026-07-23T00:00:00", "hora": "14:36", "observacio": null, "CreationDa": "2026-07-28T00:00:00", "Creator": null, "EditDate": "2026-07-28T00:00:00", "Editor": null, "consumo_fu": "no", "guardarecu": null, "municipio1": null, "municipi_1": null, "cant_pino": 100, "cant_cipre": 0, "cant_aliso": 100, "cant_encin": 75, "cant_otro": 75 }, "geometry": { "type": "Point", "coordinates": [ -91.22115615, 14.76892767 ] } },
{ "type": "Feature", "properties": { "globalid": "ef3e1662-ada0-4668-bdb9-d9d6c134f9cf", "nombre_gua": null, "municipio_": null, "region": "Altiplano Central", "area_prote": "rumcla", "area_pro_1": null, "municipio": null, "apoyo_fuer": null, "apoyo_fu_1": null, "nombre_are": null, "tipo_refor": "compromiso_consumo", "area_refor": 0.0, "especies": null, "especie_ot": null, "fecha": "2026-07-06T00:00:00", "hora": null, "observacio": null, "CreationDa": "2026-08-04T00:00:00", "Creator": null, "EditDate": "2026-08-04T00:00:00", "Editor": null, "consumo_fu": null, "guardarecu": null, "municipio1": null, "municipi_1": null, "cant_pino": 0, "cant_cipre": 0, "cant_aliso": 0, "cant_encin": 0, "cant_otro": 0 }, "geometry": { "type": "Point", "coordinates": [ -91.31336598, 14.68104434 ] } },
{ "type": "Feature", "properties": { "globalid": "dd09396b-eff1-4e92-97b7-ee4eb010dc8c", "nombre_gua": null, "municipio_": null, "region": "Altiplano Central", "area_prote": "rumcla", "area_pro_1": null, "municipio": null, "apoyo_fuer": null, "apoyo_fu_1": null, "nombre_are": null, "tipo_refor": "compromiso_consumo", "area_refor": 0.0, "especies": null, "especie_ot": null, "fecha": "2026-07-06T00:00:00", "hora": null, "observacio": null, "CreationDa": "2026-08-04T00:00:00", "Creator": null, "EditDate": "2026-08-04T00:00:00", "Editor": null, "consumo_fu": null, "guardarecu": null, "municipio1": null, "municipi_1": null, "cant_pino": 0, "cant_cipre": 0, "cant_aliso": 0, "cant_encin": 0, "cant_otro": 0 }, "geometry": { "type": "Point", "coordinates": [ -91.31339549, 14.68108046 ] } },
{ "type": "Feature", "properties": { "globalid": "177e00e6-ebc6-46c9-94ff-7ccb81788c8b", "nombre_gua": null, "municipio_": null, "region": "Altiplano Central", "area_prote": "rumcla", "area_pro_1": null, "municipio": null, "apoyo_fuer": null, "apoyo_fu_1": null, "nombre_are": null, "tipo_refor": "compromiso_consumo", "area_refor": 0.0, "especies": null, "especie_ot": null, "fecha": "2026-07-07T00:00:00", "hora": null, "observacio": null, "CreationDa": "2026-08-04T00:00:00", "Creator": null, "EditDate": "2026-08-04T00:00:00", "Editor": null, "consumo_fu": null, "guardarecu": null, "municipio1": null, "municipi_1": null, "cant_pino": 0, "cant_cipre": 0, "cant_aliso": 0, "cant_encin": 0, "cant_otro": 0 }, "geometry": { "type": "Point", "coordinates": [ -91.31280531, 14.68411605 ] } },
{ "type": "Feature", "properties": { "globalid": "869384c4-713a-40dd-b815-f7ff60902104", "nombre_gua": "Jorge Solis Xingo", "municipio_": "Panajachel", "region": "Altiplano Central", "area_prote": "rumcla", "area_pro_1": null, "municipio": "Panajachel", "apoyo_fuer": null, "apoyo_fu_1": "Caserio Chuti Estancia, San Andrés Semetabaj", "nombre_are": "Caserio Chuti Estancia", "tipo_refor": "compromiso_consumo", "area_refor": 405.0, "especies": "pino,cipres,aliso", "especie_ot": null, "fecha": "2026-08-14T00:00:00", "hora": "08:24", "observacio": "Cuerdas de 32x32 varas, el lugar contava ya con arboles grandes", "CreationDa": "2026-08-15T00:00:00", "Creator": null, "EditDate": "2026-08-15T00:00:00", "Editor": null, "consumo_fu": "si", "guardarecu": "Elvis Omar Garcia Andrade", "municipio1": "San Andrés Semetabaj", "municipi_1": "San Andrés Semetabaj", "cant_pino": 15, "cant_cipre": 15, "cant_aliso": 15, "cant_encin": 0, "cant_otro": 0 }, "geometry": { "type": "Point", "coordinates": [ -91.1123636, 14.76334192 ] } },
{ "type": "Feature", "properties": { "globalid": "d05debeb-d3ed-4e80-b842-4e4d1f01d502", "nombre_gua": "Antonio Federico Tzaj Y Tzaj", "municipio_": "Nahuala", "region": "Altiplano Central", "area_prote": "rumcla", "area_pro_1": null, "municipio": "Nahuala", "apoyo_fuer": null, "apoyo_fu_1": null, "nombre_are": "Chuisibache klm. 152.6", "tipo_refor": "compromiso_consumo", "area_refor": 0.01, "especies": "pino,aliso", "especie_ot": null, "fecha": "2026-08-18T00:00:00", "hora": "10:04", "observacio": "La regorestacion fue por compromiso del señor Francisco Cajtunaj Tzep", "CreationDa": "2026-08-18T00:00:00", "Creator": null, "EditDate": "2026-08-18T00:00:00", "Editor": null, "consumo_fu": "no", "guardarecu": null, "municipio1": null, "municipi_1": null, "cant_pino": 0, "cant_cipre": 0, "cant_aliso": 0, "cant_encin": 0, "cant_otro": 0 }, "geometry": { "type": "Point", "coordinates": [ -91.30744974, 14.80283579 ] } },
{ "type": "Feature", "properties": { "globalid": "edc225b5-58ad-482b-84ee-a82fa6342dcd", "nombre_gua": "Antonio Federico Tzaj Y Tzaj", "municipio_": "Nahuala", "region": "Altiplano Central", "area_prote": "rumcla", "area_pro_1": null, "municipio": "Nahuala", "apoyo_fuer": null, "apoyo_fu_1": null, "nombre_are": "Xexot", "tipo_refor": "compromiso_consumo", "area_refor": 0.01, "especies": "pino,aliso", "especie_ot": null, "fecha": "2026-08-20T00:00:00", "hora": "10:12", "observacio": "El usuario Francisvo Guarchaj Chox", "CreationDa": "2026-08-20T00:00:00", "Creator": null, "EditDate": "2026-08-20T00:00:00", "Editor": null, "consumo_fu": "no", "guardarecu": null, "municipio1": null, "municipi_1": null, "cant_pino": 0, "cant_cipre": 0, "cant_aliso": 0, "cant_encin": 0, "cant_otro": 0 }, "geometry": { "type": "Point", "coordinates": [ -91.29141189, 14.85151189 ] } },
{ "type": "Feature", "properties": { "globalid": "592d4e08-6ca3-4cf1-a015-7247f190c2b8", "nombre_gua": "Antonio Federico Tzaj Y Tzaj", "municipio_": "Nahuala", "region": "Altiplano Central", "area_prote": "rumcla", "area_pro_1": null, "municipio": "Nahuala", "apoyo_fuer": null, "apoyo_fu_1": null, "nombre_are": "Chichaquim", "tipo_refor": "compromiso_consumo", "area_refor": 1.0, "especies": "aliso", "especie_ot": null, "fecha": "2026-08-20T00:00:00", "hora": "11:45", "observacio": "El señor mencionado ta cumplio", "CreationDa": "2026-08-20T00:00:00", "Creator": null, "EditDate": "2026-08-20T00:00:00", "Editor": null, "consumo_fu": "no", "guardarecu": null, "municipio1": null, "municipi_1": null, "cant_pino": 0, "cant_cipre": 0, "cant_aliso": 0, "cant_encin": 0, "cant_otro": 0 }, "geometry": { "type": "Point", "coordinates": [ -91.28768588, 14.83553058 ] } },
{ "type": "Feature", "properties": { "globalid": "96a9963d-7904-40be-869a-0dd133cba566", "nombre_gua": "Jose Antonio Chuc Tay", "municipio_": "Sololá", "region": "Altiplano Central", "area_prote": "rumcla", "area_pro_1": null, "municipio": "Sololá", "apoyo_fuer": null, "apoyo_fu_1": null, "nombre_are": "Reserva Natural el Mariposario de la Rivellera", "tipo_refor": "compromiso_consumo", "area_refor": 0.0, "especies": "cipres,encino,aliso,pino", "especie_ot": null, "fecha": "2026-08-20T00:00:00", "hora": "14:52", "observacio": "Se realizo la inspeccion de campo por Reforestacion por Compromiso. Las plantas presentan un cincuenta por siento de sobrevivencia esto devido a la falta de lluvias en el departamento.", "CreationDa": "2026-08-20T00:00:00", "Creator": null, "EditDate": "2026-08-20T00:00:00", "Editor": null, "consumo_fu": "no", "guardarecu": null, "municipio1": null, "municipi_1": null, "cant_pino": 15, "cant_cipre": 30, "cant_aliso": 20, "cant_encin": 10, "cant_otro": 0 }, "geometry": { "type": "Point", "coordinates": [ -91.15472833, 14.76973167 ] } },
{ "type": "Feature", "properties": { "globalid": "4864352c-9800-41f7-b776-73bc81286632", "nombre_gua": "Henry Regino Méndez Chavajay", "municipio_": "San Pedro La Laguna", "region": "Altiplano Central", "area_prote": "rumcla", "area_pro_1": null, "municipio": "San Pedro La Laguna", "apoyo_fuer": null, "apoyo_fu_1": null, "nombre_are": "parbi kixtan", "tipo_refor": "compromiso_consumo", "area_refor": 0.5, "especies": null, "especie_ot": null, "fecha": "2026-08-19T00:00:00", "hora": "09:57", "observacio": "El usuario Pedro Cumatz Batzin no realizo el consumo", "CreationDa": "2026-08-21T00:00:00", "Creator": null, "EditDate": "2026-08-21T00:00:00", "Editor": null, "consumo_fu": "no", "guardarecu": null, "municipio1": null, "municipi_1": null, "cant_pino": 0, "cant_cipre": 0, "cant_aliso": 0, "cant_encin": 0, "cant_otro": 0 }, "geometry": { "type": "Point", "coordinates": [ -91.2863258, 14.64079113 ] } },
{ "type": "Feature", "properties": { "globalid": "279a18e6-4cad-4379-b51f-47433b215cd1", "nombre_gua": "Jose Octavio Xitamul Recinos", "municipio_": "San José Chacaya", "region": "Altiplano Central", "area_prote": "rumcla", "area_pro_1": null, "municipio": "San José Chacaya", "apoyo_fuer": null, "apoyo_fu_1": null, "nombre_are": "Xeulj, caserio parromero", "tipo_refor": "compromiso_consumo", "area_refor": 0.0, "especies": "pino,aliso,encino", "especie_ot": null, "fecha": "2026-07-30T00:00:00", "hora": "11:30", "observacio": null, "CreationDa": "2026-08-25T00:00:00", "Creator": null, "EditDate": "2026-08-25T00:00:00", "Editor": null, "consumo_fu": "no", "guardarecu": null, "municipio1": null, "municipi_1": null, "cant_pino": 25, "cant_cipre": 0, "cant_aliso": 25, "cant_encin": 25, "cant_otro": 0 }, "geometry": { "type": "Point", "coordinates": [ -91.22869333, 14.76651167 ] } },
{ "type": "Feature", "properties": { "globalid": "d5579e4a-a059-431a-aa4b-7621a160102d", "nombre_gua": "Vicente Francisco Omar Pérez Cox", "municipio_": "Santa Maria Visitación", "region": "Altiplano Central", "area_prote": "rumcla", "area_pro_1": null, "municipio": "San Juan la laguna", "apoyo_fuer": null, "apoyo_fu_1": "San Juan la Laguna", "nombre_are": "Panyebar San Juan La Laguna", "tipo_refor": "compromiso_consumo", "area_refor": 720.0, "especies": "aliso", "especie_ot": null, "fecha": "2026-09-21T00:00:00", "hora": "14:27", "observacio": "Reforestacion con Aliso Amarillo Pedro Ajpacaja Cuxulic", "CreationDa": "2026-09-23T00:00:00", "Creator": null, "EditDate": "2026-09-23T00:00:00", "Editor": null, "consumo_fu": "si", "guardarecu": "Vicente Francisco Omar Pérez Cox", "municipio1": "Santa Maria Visitación", "municipi_1": "Santa Maria Visitación", "cant_pino": 0, "cant_cipre": 0, "cant_aliso": 100, "cant_encin": 0, "cant_otro": 0 }, "geometry": { "type": "Point", "coordinates": [ -91.31718274, 14.66408782 ] } },
{ "type": "Feature", "properties": { "globalid": "6e3caafb-299f-4f35-be69-1670c6f7548a", "nombre_gua": "Rafaél Enrique Chocoy Chocoy", "municipio_": "Santa Clara La Laguna", "region": "Altiplano Central", "area_prote": "rumcla", "area_pro_1": null, "municipio": "Santa Clara La Laguna", "apoyo_fuer": null, "apoyo_fu_1": null, "nombre_are": null, "tipo_refor": "compromiso_consumo", "area_refor": 20.0, "especies": "pino", "especie_ot": null, "fecha": "2026-09-30T00:00:00", "hora": null, "observacio": null, "CreationDa": "2026-09-30T00:00:00", "Creator": null, "EditDate": "2026-09-30T00:00:00", "Editor": null, "consumo_fu": "no", "guardarecu": null, "municipio1": null, "municipi_1": null, "cant_pino": 20, "cant_cipre": 0, "cant_aliso": 0, "cant_encin": 0, "cant_otro": 0 }, "geometry": { "type": "Point", "coordinates": [ -91.29375986, 14.74646 ] } },
{ "type": "Feature", "properties": { "globalid": "f1604743-d1df-4e4b-80e8-0b6b47485b83", "nombre_gua": "Edgar Bartolo Batín Navichoc", "municipio_": "San Pedro La Laguna", "region": "Altiplano Central", "area_prote": "rumcla", "area_pro_1": null, "municipio": "San Pedro La Laguna", "apoyo_fuer": null, "apoyo_fu_1": null, "nombre_are": "Area protegida Chuaquisteel San Pedro LaLaguna", "tipo_refor": "compromiso_consumo", "area_refor": 2028.0, "especies": "pino", "especie_ot": null, "fecha": "2026-10-02T00:00:00", "hora": "08:09", "observacio": "Se realizo esta reforestacion en esta fecha por la falta de lluvia y con los alumno del colegio catolico  en forma voluntaria", "CreationDa": "2026-10-03T00:00:00", "Creator": null, "EditDate": "2026-10-03T00:00:00", "Editor": null, "consumo_fu": "no", "guardarecu": null, "municipio1": null, "municipi_1": null, "cant_pino": 250, "cant_cipre": 0, "cant_aliso": 0, "cant_encin": 0, "cant_otro": 0 }, "geometry": { "type": "Point", "coordinates": [ -91.29031167, 14.65952 ] } }
]
}
