{
"type": "FeatureCollection",
"name": "control_liquidacion_incendios",
"xy_coordinate_resolution": 1e-08,
"features": [
{ "type": "Feature", "properties": { "globalid": "fcf1ecbe-a9b4-412a-91e8-14967c67526e", "nombre_gua": "Bernabé López Sajvín", "region": "Altiplano Central", "area_prote": "rumcla", "area_pro_1": null, "departamen": "Solola", "municipio_": "Santa Catarina Palopó", "municipio": "Santa Catarina Palopó", "referencia": "En el area denominada chua cruz, en jurisdiccion del mirador ojo del aguila, santa catarina palolpo", "aviso_fech": "2025-12-14T00:00:00", "aviso_hora": "03:15", "forma_avis": "telefono", "llegada_mt": "1899-12-30T00:00:00", "llegada__1": null, "llegaron_a": "no", "llegada_ma": "1899-12-30T00:00:00", "llegada__2": null, "propiedad_": "privada", "tipo_bosqu": "bosque_natural", "area_plant": 0.0, "area_bosqu": 1.5, "pendiente_": 0.0, "topografia": null, "tipo_veget": null, "superficie": 40.0, "tipo_incen": "rastrero", "tecnicas_e": "control_natural", "control_fe": "2025-12-15T00:00:00", "control_ho": "03:35", "institucio": "conap,conred", "instituc_1": null, "liquidacio": "2025-12-15T00:00:00", "liquidac_1": "15:35", "causas_inc": "intencionales", "causas_otr": null, "observacio": "Area afectada, pajonal y guamil", "CreationDa": "2025-12-15T00:00:00", "Creator": null, "EditDate": "2025-12-15T00:00:00", "Editor": null }, "geometry": { "type": "Point", "coordinates": [ -91.13734111, 14.72548365 ] } },
{ "type": "Feature", "properties": { "globalid": "5de65db7-2c3e-4ed3-9430-f9c44d392366", "nombre_gua": "Jose Octavio Xitamul Recinos", "region": "Altiplano Central", "area_prote": "rumcla", "area_pro_1": null, "departamen": "Solola", "municipio_": "San José Chacaya", "municipio": "San José Chacaya", "referencia": "Finca el molino", "aviso_fech": "2025-12-29T00:00:00", "aviso_hora": "09:02", "forma_avis": "telefono", "llegada_mt": "2025-12-29T00:00:00", "llegada__1": "09:23", "llegaron_a": "no", "llegada_ma": "1899-12-30T00:00:00", "llegada__2": null, "propiedad_": "privada", "tipo_bosqu": "bosque_natural", "area_plant": 0.0, "area_bosqu": 0.2, "pendiente_": 0.0, "topografia": null, "tipo_veget": null, "superficie": 0.2, "tipo_incen": "rastrero", "tecnicas_e": "ataque_directo", "control_fe": "2025-12-29T00:00:00", "control_ho": "14:23", "institucio": "conap,particulares", "instituc_1": null, "liquidacio": "2025-12-30T00:00:00", "liquidac_1": "11:00", "causas_inc": "intencionales", "causas_otr": null, "observacio": null, "CreationDa": "2026-01-01T00:00:00", "Creator": null, "EditDate": "2026-01-01T00:00:00", "Editor": null }, "geometry": { "type": "Point", "coordinates": [ -91.21756167, 14.78036667 ] } },
{ "type": "Feature", "properties": { "globalid": "2a6ffca9-39f5-47b6-9ae1-f1a6e3c176c6", "nombre_gua": "Juan Marcos Saquic", "region": "Altiplano Central", "area_prote": "rumcla", "area_pro_1": null, "departamen": "Sololá", "municipio_": "Santa Lucia Utatlán", "municipio": "Santa Lucia Utatlán", "referencia": "Escuela Normal Regional de Occidente K144.5", "aviso_fech": "2025-12-15T00:00:00", "aviso_hora": "09:04", "forma_avis": "telefono", "llegada_mt": "1899-12-30T00:00:00", "llegada__1": null, "llegaron_a": "no", "llegada_ma": "1899-12-30T00:00:00", "llegada__2": null, "propiedad_": "estado", "tipo_bosqu": "bosque_natural", "area_plant": 0.0, "area_bosqu": 0.2, "pendiente_": 0.0, "topografia": null, "tipo_veget": null, "superficie": 0.2, "tipo_incen": "rastrero", "tecnicas_e": "ataque_directo", "control_fe": "1899-12-30T00:00:00", "control_ho": null, "institucio": "bomberos", "instituc_1": null, "liquidacio": "1899-12-30T00:00:00", "liquidac_1": null, "causas_inc": "intencionales", "causas_otr": null, "observacio": "Segu  informacion recabada el incendio se dio el dia viernes 12 de diciembre 2025", "CreationDa": "2026-01-06T00:00:00", "Creator": null, "EditDate": "2026-01-06T00:00:00", "Editor": null }, "geometry": { "type": "Point", "coordinates": [ -91.25670667, 14.79069333 ] } },
{ "type": "Feature", "properties": { "globalid": "0c9f1d22-8c64-4f2d-8aea-3985e8c86728", "nombre_gua": "Bernabé López Sajvín", "region": "Altiplano Central", "area_prote": "rumcla", "area_pro_1": null, "departamen": "Solola", "municipio_": "Santa Catarina Palopó", "municipio": "Santa Catarina Palopó", "referencia": "Lugar denominado chua cruz, santa catarina palopo", "aviso_fech": "2026-01-17T00:00:00", "aviso_hora": "06:12", "forma_avis": "telefono", "llegada_mt": "2026-01-17T00:00:00", "llegada__1": "06:22", "llegaron_a": null, "llegada_ma": "1899-12-30T00:00:00", "llegada__2": null, "propiedad_": "mixto", "tipo_bosqu": null, "area_plant": 0.0, "area_bosqu": 0.0, "pendiente_": 0.0, "topografia": null, "tipo_veget": null, "superficie": 0.0, "tipo_incen": "rastrero", "tecnicas_e": "ataque_directo", "control_fe": "2026-01-18T00:00:00", "control_ho": "03:31", "institucio": "bomberos,particulares,municipalidad", "instituc_1": null, "liquidacio": "2026-01-18T00:00:00", "liquidac_1": "03:32", "causas_inc": "intencionales", "causas_otr": null, "observacio": "Se apoyo a los bomberos voluntarios de panajachel y solola para la liquidacion de insendio provocado.", "CreationDa": "2026-01-18T00:00:00", "Creator": null, "EditDate": "2026-01-18T00:00:00", "Editor": null }, "geometry": { "type": "Point", "coordinates": [ -91.13939501, 14.72506501 ] } },
{ "type": "Feature", "properties": { "globalid": "b3814f9a-8c62-43a2-8c6b-2405160a03e3", "nombre_gua": "Francisco Sicay Icaj", "region": "Altiplano Central", "area_prote": "rumcla", "area_pro_1": null, "departamen": "Sololá", "municipio_": null, "municipio": "Santiago Atitlán", "referencia": "Cerro de Oro, Santiago Atitlán", "aviso_fech": "2026-01-21T00:00:00", "aviso_hora": "10:30", "forma_avis": "telefono", "llegada_mt": "2026-01-21T00:00:00", "llegada__1": "23:10", "llegaron_a": "no", "llegada_ma": "1899-12-30T00:00:00", "llegada__2": null, "propiedad_": "comunal", "tipo_bosqu": "bosque_natural", "area_plant": 0.0, "area_bosqu": 3.0, "pendiente_": 0.0, "topografia": null, "tipo_veget": null, "superficie": 3.0, "tipo_incen": "rastrero", "tecnicas_e": "ataque_directo", "control_fe": "2026-01-21T00:00:00", "control_ho": "23:15", "institucio": "conap,conred,municipalidad", "instituc_1": null, "liquidacio": "2026-01-21T00:00:00", "liquidac_1": "15:32", "causas_inc": "intencionales", "causas_otr": null, "observacio": "Se desconoce las causas del incendio y también el responsable.", "CreationDa": "2026-01-22T00:00:00", "Creator": null, "EditDate": "2026-01-22T00:00:00", "Editor": null }, "geometry": { "type": "Point", "coordinates": [ -91.17473915, 14.66398173 ] } },
{ "type": "Feature", "properties": { "globalid": "c71827ec-ee18-43fa-95ef-57d431760e11", "nombre_gua": "Edgar Bartolo Batín Navichoc", "region": "Altiplano Central", "area_prote": "rumcla", "area_pro_1": null, "departamen": "Solola", "municipio_": "San Pedro La Laguna", "municipio": "San Pedro La Laguna", "referencia": "Chuaqeqapek serca de la finca tzantziapa", "aviso_fech": "2026-01-21T00:00:00", "aviso_hora": "13:30", "forma_avis": "telefono", "llegada_mt": "2026-01-21T00:00:00", "llegada__1": "14:30", "llegaron_a": "no", "llegada_ma": "1899-12-30T00:00:00", "llegada__2": null, "propiedad_": "privada", "tipo_bosqu": "plantacion", "area_plant": 1.5, "area_bosqu": 0.0, "pendiente_": 40.0, "topografia": null, "tipo_veget": "Cafe milpa arboles de aguacate matapalo cuxin", "superficie": 1.5, "tipo_incen": "rastrero", "tecnicas_e": "ataque_directo", "control_fe": "2026-01-21T00:00:00", "control_ho": "18:00", "institucio": "conap,municipalidad,particulares,otro", "instituc_1": "Cocodes", "liquidacio": "2026-01-22T00:00:00", "liquidac_1": "00:00", "causas_inc": "desconocida", "causas_otr": null, "observacio": "El fortalecimiento humano es importante pero so re todo lo de las autoridades", "CreationDa": "2026-01-23T00:00:00", "Creator": null, "EditDate": "2026-01-23T00:00:00", "Editor": null }, "geometry": { "type": "Point", "coordinates": [ -91.24878617, 14.67627967 ] } },
{ "type": "Feature", "properties": { "globalid": "275932ac-4805-452a-8400-abfd04ad995f", "nombre_gua": "Henry Regino Méndez Chavajay", "region": "Altiplano Central", "area_prote": "rumcla", "area_pro_1": null, "departamen": "Solola", "municipio_": "San Pedro La Laguna", "municipio": "San Pedro La Laguna", "referencia": "camino a la finca", "aviso_fech": "2026-01-21T00:00:00", "aviso_hora": "13:30", "forma_avis": "telefono", "llegada_mt": "2026-01-23T00:00:00", "llegada__1": "14:30", "llegaron_a": "no", "llegada_ma": "1899-12-30T00:00:00", "llegada__2": null, "propiedad_": "privada", "tipo_bosqu": "plantacion", "area_plant": 1.5, "area_bosqu": 0.0, "pendiente_": 40.0, "topografia": null, "tipo_veget": "cafe cuxin milpa", "superficie": 1.5, "tipo_incen": "rastrero", "tecnicas_e": "ataque_directo", "control_fe": "2026-01-21T00:00:00", "control_ho": "18:00", "institucio": "conap,municipalidad,particulares,otro", "instituc_1": "cocode", "liquidacio": "2026-01-22T00:00:00", "liquidac_1": "12:00", "causas_inc": "desconocida,otro", "causas_otr": "cocodes", "observacio": "es importante la participacion de la muni y de la poblacio", "CreationDa": "2026-01-23T00:00:00", "Creator": null, "EditDate": "2026-01-23T00:00:00", "Editor": null }, "geometry": { "type": "Point", "coordinates": [ -91.24883247, 14.67633107 ] } },
{ "type": "Feature", "properties": { "globalid": "0419505e-5338-411c-86de-01fc40c9bbe2", "nombre_gua": "Derik Estuardo Calel Cruz", "region": "Altiplano Central", "area_prote": "fuera_rumcla", "area_pro_1": "Tecpan", "departamen": "Chimaltenango", "municipio_": "Tecpan", "municipio": "Tecpan", "referencia": "Tecpan", "aviso_fech": "2026-02-02T00:00:00", "aviso_hora": "19:06", "forma_avis": "telefono", "llegada_mt": "2026-02-02T00:00:00", "llegada__1": "19:06", "llegaron_a": "no", "llegada_ma": "1899-12-30T00:00:00", "llegada__2": null, "propiedad_": "privada", "tipo_bosqu": "bosque_natural", "area_plant": 0.0, "area_bosqu": 0.05, "pendiente_": 0.0, "topografia": null, "tipo_veget": null, "superficie": 0.0, "tipo_incen": "rastrero", "tecnicas_e": "ataque_directo", "control_fe": "2026-02-02T00:00:00", "control_ho": "19:26", "institucio": "conap,conred,municipalidad", "instituc_1": null, "liquidacio": "2026-02-02T00:00:00", "liquidac_1": "19:26", "causas_inc": "intencionales", "causas_otr": null, "observacio": null, "CreationDa": "2026-02-03T00:00:00", "Creator": null, "EditDate": "2026-02-03T00:00:00", "Editor": null }, "geometry": { "type": "Point", "coordinates": [ -90.99626588, 14.76882979 ] } },
{ "type": "Feature", "properties": { "globalid": "fd8df208-79aa-491b-9ef7-1b131ed345fe", "nombre_gua": "José Manuel Vásquez Upún", "region": "Altiplano Central", "area_prote": "rumcla", "area_pro_1": null, "departamen": "Sololá", "municipio_": "San Andres Semetabaj", "municipio": "San Andres Semetabaj", "referencia": "Finca Tzarayá, San Andrés Semetabaj", "aviso_fech": "2026-01-26T00:00:00", "aviso_hora": "22:45", "forma_avis": "redes", "llegada_mt": "2026-01-26T00:00:00", "llegada__1": "09:45", "llegaron_a": "no", "llegada_ma": "1899-12-30T00:00:00", "llegada__2": null, "propiedad_": "privada", "tipo_bosqu": "bosque_natural", "area_plant": 0.0, "area_bosqu": 1.0, "pendiente_": 0.0, "topografia": null, "tipo_veget": null, "superficie": 1.0, "tipo_incen": "rastrero", "tecnicas_e": "ataque_directo", "control_fe": "2026-01-27T00:00:00", "control_ho": "01:24", "institucio": "bomberos,conap", "instituc_1": null, "liquidacio": "2026-01-27T00:00:00", "liquidac_1": "14:45", "causas_inc": "desconocida", "causas_otr": null, "observacio": "Incendio en 3 áreas dentro de la misma finca", "CreationDa": "2026-02-03T00:00:00", "Creator": null, "EditDate": "2026-02-03T00:00:00", "Editor": null }, "geometry": { "type": "Point", "coordinates": [ -91.12686108, 14.75330078 ] } },
{ "type": "Feature", "properties": { "globalid": "4a9153b4-b9fa-452d-ae33-97733dcb4a03", "nombre_gua": "Jose Octavio Xitamul Recinos", "region": "Altiplano Central", "area_prote": "rumcla", "area_pro_1": null, "departamen": "Solola", "municipio_": "San José Chacaya", "municipio": "San José Chacaya", "referencia": "Caserio chuimanzana", "aviso_fech": "2026-02-09T00:00:00", "aviso_hora": "15:15", "forma_avis": "telefono", "llegada_mt": "2026-02-09T00:00:00", "llegada__1": "15:30", "llegaron_a": "no", "llegada_ma": "1899-12-30T00:00:00", "llegada__2": null, "propiedad_": "privada", "tipo_bosqu": "bosque_natural", "area_plant": 0.0, "area_bosqu": 0.2, "pendiente_": 0.0, "topografia": null, "tipo_veget": null, "superficie": 0.2, "tipo_incen": "rastrero", "tecnicas_e": "ataque_directo", "control_fe": "2026-02-09T00:00:00", "control_ho": "16:53", "institucio": "conap,municipalidad,particulares", "instituc_1": null, "liquidacio": "2026-02-10T00:00:00", "liquidac_1": "12:00", "causas_inc": "intencionales", "causas_otr": null, "observacio": null, "CreationDa": "2026-02-11T00:00:00", "Creator": null, "EditDate": "2026-02-11T00:00:00", "Editor": null }, "geometry": { "type": "Point", "coordinates": [ -91.22895833, 14.76328167 ] } },
{ "type": "Feature", "properties": { "globalid": "3d02fe8e-a3af-4847-b864-30738706a6a0", "nombre_gua": "Edgar Bartolo Batín Navichoc", "region": "Altiplano Central", "area_prote": "rumcla", "area_pro_1": null, "departamen": "SololaS", "municipio_": "San Pedro La Laguna", "municipio": "San Pedro La Laguna", "referencia": "Area protegida en Pamaczul", "aviso_fech": "2026-02-09T00:00:00", "aviso_hora": "18:06", "forma_avis": "telefono", "llegada_mt": "2026-02-09T00:00:00", "llegada__1": "18:35", "llegaron_a": "no", "llegada_ma": "1899-12-30T00:00:00", "llegada__2": null, "propiedad_": "privada", "tipo_bosqu": "plantacion", "area_plant": 0.21, "area_bosqu": 0.0, "pendiente_": 5.0, "topografia": null, "tipo_veget": "Rastrojo y arboles de pino y cipres", "superficie": 0.21, "tipo_incen": "rastrero", "tecnicas_e": "ataque_directo", "control_fe": "2026-02-09T00:00:00", "control_ho": "22:20", "institucio": "conap,particulares,otro", "instituc_1": "Los dueños de terreno", "liquidacio": "2026-02-10T00:00:00", "liquidac_1": "17:15", "causas_inc": "desconocida", "causas_otr": null, "observacio": null, "CreationDa": "2026-02-11T00:00:00", "Creator": null, "EditDate": "2026-02-11T00:00:00", "Editor": null }, "geometry": { "type": "Point", "coordinates": [ -91.30207451, 14.6507873 ] } },
{ "type": "Feature", "properties": { "globalid": "8630fca6-8d7b-43f8-9535-3fc3f6f89783", "nombre_gua": "Derik Estuardo Calel Cruz", "region": "Altiplano Central", "area_prote": "fuera_rumcla", "area_pro_1": "Area privada", "departamen": "Chimaltenango", "municipio_": "Tecpan", "municipio": "Tecpan", "referencia": "Argentina", "aviso_fech": "2026-02-11T00:00:00", "aviso_hora": "13:46", "forma_avis": "telefono", "llegada_mt": "2026-02-11T00:00:00", "llegada__1": "13:46", "llegaron_a": "no", "llegada_ma": "1899-12-30T00:00:00", "llegada__2": null, "propiedad_": "privada", "tipo_bosqu": "bosque_natural", "area_plant": 0.0, "area_bosqu": 0.5, "pendiente_": 0.0, "topografia": null, "tipo_veget": null, "superficie": 0.5, "tipo_incen": "rastrero", "tecnicas_e": "ataque_directo", "control_fe": "2026-02-11T00:00:00", "control_ho": "18:48", "institucio": "conap,conred,municipalidad", "instituc_1": null, "liquidacio": "2026-02-11T00:00:00", "liquidac_1": "16:40", "causas_inc": "intencionales", "causas_otr": null, "observacio": null, "CreationDa": "2026-02-11T00:00:00", "Creator": null, "EditDate": "2026-02-11T00:00:00", "Editor": null }, "geometry": { "type": "Point", "coordinates": [ -91.0000571, 14.78594797 ] } },
{ "type": "Feature", "properties": { "globalid": "fbb1273e-2acc-4860-a8e0-66e52f430dc8", "nombre_gua": "Bernabé López Sajvín", "region": "Altiplano Central", "area_prote": "rumcla", "area_pro_1": null, "departamen": "Solola", "municipio_": "Santa Catarina Palopó", "municipio": "Santa Catarina Palopó", "referencia": "Caserio Xepec, santa catarina palopo", "aviso_fech": "2026-02-11T00:00:00", "aviso_hora": "12:36", "forma_avis": "telefono", "llegada_mt": "2026-02-11T00:00:00", "llegada__1": "13:36", "llegaron_a": "no", "llegada_ma": "1899-12-30T00:00:00", "llegada__2": null, "propiedad_": "mixto", "tipo_bosqu": "bosque_natural", "area_plant": 0.0, "area_bosqu": 2.0, "pendiente_": 0.0, "topografia": null, "tipo_veget": null, "superficie": 2.0, "tipo_incen": "rastrero", "tecnicas_e": "ataque_directo", "control_fe": "2026-02-11T00:00:00", "control_ho": "15:38", "institucio": "conred,conap,particulares", "instituc_1": null, "liquidacio": "2026-02-11T00:00:00", "liquidac_1": "16:39", "causas_inc": "desconocida", "causas_otr": null, "observacio": "En el momento que se recibio la llamada inmediatamente coordine con los compañeros vecinos de san andres y san antonio para el apouo y liquidacion del incendio", "CreationDa": "2026-02-11T00:00:00", "Creator": null, "EditDate": "2026-02-11T00:00:00", "Editor": null }, "geometry": { "type": "Point", "coordinates": [ -91.12033616, 14.7160232 ] } },
{ "type": "Feature", "properties": { "globalid": "36ce0553-5ce8-4a43-a8fa-583d0368444a", "nombre_gua": "Ezequiel Iboy Bacajol", "region": "Altiplano Central", "area_prote": "fuera_rumcla", "area_pro_1": "Area conocida como la balastrera conlidas con montaña en soco san antonio nejapa acatenango", "departamen": "Chimaltenango", "municipio_": "Acatenango", "municipio": "Acatenango", "referencia": "Pahuit entre pazitcia y acatenango", "aviso_fech": "2026-02-08T00:00:00", "aviso_hora": "22:00", "forma_avis": "telefono", "llegada_mt": "2026-02-09T00:00:00", "llegada__1": "08:30", "llegaron_a": "no", "llegada_ma": "1899-12-30T00:00:00", "llegada__2": null, "propiedad_": "privada", "tipo_bosqu": "bosque_natural", "area_plant": 0.0, "area_bosqu": 2.0, "pendiente_": 0.0, "topografia": null, "tipo_veget": null, "superficie": 2.0, "tipo_incen": "rastrero", "tecnicas_e": "ataque_indirecto", "control_fe": "2026-02-10T00:00:00", "control_ho": "18:00", "institucio": "conap,municipalidad,bomberos,conred", "instituc_1": null, "liquidacio": "2026-02-11T00:00:00", "liquidac_1": "15:00", "causas_inc": "quemas_agricolas", "causas_otr": null, "observacio": "Nos imformaron del incendio dis domingo tipo 9 de la noche, dia lunes se organizo con la muni y los bonberos voluntarios", "CreationDa": "2026-02-12T00:00:00", "Creator": null, "EditDate": "2026-02-12T00:00:00", "Editor": null }, "geometry": { "type": "Point", "coordinates": [ -90.91551833, 14.59128833 ] } },
{ "type": "Feature", "properties": { "globalid": "f79b0d15-f505-4b73-83d5-752fbe2d0263", "nombre_gua": "Antonio Federico Tzaj Y Tzaj", "region": "Altiplano Central", "area_prote": "rumcla", "area_pro_1": null, "departamen": "Solola", "municipio_": "Nahuala", "municipio": "Nahuala", "referencia": "Chi ul", "aviso_fech": "2026-02-16T00:00:00", "aviso_hora": "12:23", "forma_avis": "telefono", "llegada_mt": "2026-02-16T00:00:00", "llegada__1": "14:15", "llegaron_a": "no", "llegada_ma": "1899-12-30T00:00:00", "llegada__2": null, "propiedad_": "privada", "tipo_bosqu": "bosque_natural", "area_plant": 0.0, "area_bosqu": 4.0, "pendiente_": 0.0, "topografia": null, "tipo_veget": null, "superficie": 4.0, "tipo_incen": "rastrero", "tecnicas_e": "ataque_directo,ataque_indirecto,control_natural", "control_fe": "2026-02-16T00:00:00", "control_ho": "16:54", "institucio": "conap,municipalidad,otro", "instituc_1": "Guardabosques", "liquidacio": "2026-02-17T00:00:00", "liquidac_1": "14:55", "causas_inc": "quemas_agricolas", "causas_otr": null, "observacio": null, "CreationDa": "2026-02-16T00:00:00", "Creator": null, "EditDate": "2026-02-16T00:00:00", "Editor": null }, "geometry": { "type": "Point", "coordinates": [ 0.0, 0.0 ] } },
{ "type": "Feature", "properties": { "globalid": "b8732c55-1036-435e-bbe6-611f31e5cf67", "nombre_gua": "Bernabé López Sajvín", "region": "Altiplano Central", "area_prote": "rumcla", "area_pro_1": null, "departamen": "Solola", "municipio_": "Santa Catarina Palopó", "municipio": "Santa Catarina Palopó", "referencia": "Caserio pacaman, de santa catarina palopo", "aviso_fech": "2026-02-17T00:00:00", "aviso_hora": "11:14", "forma_avis": "telefono", "llegada_mt": "2026-02-12T00:00:00", "llegada__1": "12:15", "llegaron_a": "no", "llegada_ma": "1899-12-30T00:00:00", "llegada__2": null, "propiedad_": "privada", "tipo_bosqu": "bosque_natural", "area_plant": 0.0, "area_bosqu": 0.5, "pendiente_": 0.0, "topografia": null, "tipo_veget": null, "superficie": 0.5, "tipo_incen": "rastrero", "tecnicas_e": "ataque_directo", "control_fe": "2026-02-17T00:00:00", "control_ho": "17:20", "institucio": "conred,particulares,conap", "instituc_1": null, "liquidacio": "2026-02-17T00:00:00", "liquidac_1": "17:36", "causas_inc": "desconocida", "causas_otr": null, "observacio": "Se ataco, controlo y liquido el incendio con la coordinacion de la conred departamental y el compañero guarda de san antonio palopo", "CreationDa": "2026-02-17T00:00:00", "Creator": null, "EditDate": "2026-02-17T00:00:00", "Editor": null }, "geometry": { "type": "Point", "coordinates": [ -91.11674376, 14.71147439 ] } },
{ "type": "Feature", "properties": { "globalid": "7580c394-3ebd-4008-96b4-1f8abf804dd9", "nombre_gua": "Carlos Eliberto Chiroy", "region": "Altiplano Central", "area_prote": "rumcla", "area_pro_1": null, "departamen": "Solola", "municipio_": "San Lucas Tolimán", "municipio": "San Lucas Tolimán", "referencia": "Isla tzamtem, pachitulul", "aviso_fech": "2026-02-10T00:00:00", "aviso_hora": "22:20", "forma_avis": "personal", "llegada_mt": "2026-02-10T00:00:00", "llegada__1": "23:00", "llegaron_a": "no", "llegada_ma": "1899-12-30T00:00:00", "llegada__2": null, "propiedad_": "privada", "tipo_bosqu": "bosque_natural", "area_plant": 0.0, "area_bosqu": 0.06, "pendiente_": 0.0, "topografia": null, "tipo_veget": null, "superficie": 0.0, "tipo_incen": "rastrero", "tecnicas_e": "ataque_directo", "control_fe": "2026-02-10T00:00:00", "control_ho": "12:40", "institucio": "conap", "instituc_1": null, "liquidacio": "2026-02-10T00:00:00", "liquidac_1": "12:50", "causas_inc": "intencionales", "causas_otr": null, "observacio": "Se i greso al lugar por senderos de IMAP para llegar al punto del incendio rastrero y se hablo con el encargado del lugar juan gomez indicando que en el lugar se esta quemando ramas secas y espinas por orden del propietario", "CreationDa": "2026-02-24T00:00:00", "Creator": null, "EditDate": "2026-02-24T00:00:00", "Editor": null }, "geometry": { "type": "Point", "coordinates": [ -91.15108333, 14.65861111 ] } },
{ "type": "Feature", "properties": { "globalid": "e94a6ca3-4dbc-4649-b5b4-daa25c1f3088", "nombre_gua": "Carlos Eliberto Chiroy", "region": "Altiplano Central", "area_prote": "rumcla", "area_pro_1": null, "departamen": "Solola", "municipio_": "San Lucas Tolimán", "municipio": "San Lucas Tolimán", "referencia": "El sanjon", "aviso_fech": "2026-02-12T00:00:00", "aviso_hora": "18:46", "forma_avis": "redes", "llegada_mt": "2026-02-12T00:00:00", "llegada__1": "07:08", "llegaron_a": "no", "llegada_ma": "1899-12-30T00:00:00", "llegada__2": null, "propiedad_": "privada", "tipo_bosqu": "bosque_natural", "area_plant": 0.0, "area_bosqu": 0.06, "pendiente_": 0.0, "topografia": null, "tipo_veget": null, "superficie": 0.06, "tipo_incen": "rastrero", "tecnicas_e": "ataque_directo", "control_fe": "2026-02-12T00:00:00", "control_ho": "21:30", "institucio": "conap,municipalidad,bomberos", "instituc_1": null, "liquidacio": "2026-02-13T00:00:00", "liquidac_1": "20:24", "causas_inc": "quema_basura", "causas_otr": null, "observacio": "El incendio se provoco debido a la basura en el lugar", "CreationDa": "2026-02-24T00:00:00", "Creator": null, "EditDate": "2026-02-24T00:00:00", "Editor": null }, "geometry": { "type": "Point", "coordinates": [ -91.15065, 14.61698 ] } },
{ "type": "Feature", "properties": { "globalid": "4a1be7f8-69c6-4362-b930-5bf59889adb4", "nombre_gua": "Carlos Eliberto Chiroy", "region": "Altiplano Central", "area_prote": "rumcla", "area_pro_1": null, "departamen": "Solola", "municipio_": "San Lucas Tolimán", "municipio": "San lucas Toliman Solola", "referencia": "Canton san martin, chuisajquiy", "aviso_fech": "2026-02-16T00:00:00", "aviso_hora": "12:18", "forma_avis": "personal", "llegada_mt": "2026-02-16T00:00:00", "llegada__1": "15:37", "llegaron_a": "no", "llegada_ma": "1899-12-30T00:00:00", "llegada__2": null, "propiedad_": "privada", "tipo_bosqu": "plantacion", "area_plant": 0.06, "area_bosqu": 0.0, "pendiente_": 0.0, "topografia": null, "tipo_veget": null, "superficie": 0.06, "tipo_incen": "rastrero", "tecnicas_e": "ataque_indirecto", "control_fe": "2026-02-16T00:00:00", "control_ho": "15:44", "institucio": "conap,municipalidad,particulares", "instituc_1": null, "liquidacio": "1899-12-30T00:00:00", "liquidac_1": null, "causas_inc": "quemas_agricolas", "causas_otr": null, "observacio": "El incendio se derivo de una quema agricola en el lugar", "CreationDa": "2026-02-24T00:00:00", "Creator": null, "EditDate": "2026-02-24T00:00:00", "Editor": null }, "geometry": { "type": "Point", "coordinates": [ -91.15724, 14.59388 ] } },
{ "type": "Feature", "properties": { "globalid": "c5be2a3a-7ff1-4760-be97-1543b08754a0", "nombre_gua": "Juan Marcos Saquic", "region": "Altiplano Central", "area_prote": "rumcla", "area_pro_1": null, "departamen": "Sololá", "municipio_": "Santa Lucia Utatlán", "municipio": "Santa Lucia Utatlán", "referencia": "Cerro Saquilac", "aviso_fech": "2026-02-10T00:00:00", "aviso_hora": "07:30", "forma_avis": "telefono", "llegada_mt": "2026-02-10T00:00:00", "llegada__1": "08:28", "llegaron_a": "no", "llegada_ma": "1899-12-30T00:00:00", "llegada__2": null, "propiedad_": "privada", "tipo_bosqu": "bosque_natural", "area_plant": 0.0, "area_bosqu": 100.0, "pendiente_": 0.0, "topografia": null, "tipo_veget": null, "superficie": 0.02, "tipo_incen": "rastrero", "tecnicas_e": "ataque_indirecto", "control_fe": "2026-02-10T00:00:00", "control_ho": "11:29", "institucio": "conap,municipalidad,particulares", "instituc_1": null, "liquidacio": "2026-02-10T00:00:00", "liquidac_1": "01:30", "causas_inc": "quemas_pastos", "causas_otr": null, "observacio": "3 cuerdas la que se quemo", "CreationDa": "2026-02-24T00:00:00", "Creator": null, "EditDate": "2026-02-24T00:00:00", "Editor": null }, "geometry": { "type": "Point", "coordinates": [ -91.27028333, 14.759045 ] } },
{ "type": "Feature", "properties": { "globalid": "9045331b-1dd1-4190-8425-80c1d6d87cf4", "nombre_gua": "José Manuel Vásquez Upún", "region": "Altiplano Central", "area_prote": "rumcla", "area_pro_1": null, "departamen": "Sololá", "municipio_": "San Andres Semetabaj", "municipio": "San Andres Semetabaj", "referencia": "Finca Tzarayá", "aviso_fech": "2026-01-26T00:00:00", "aviso_hora": "22:30", "forma_avis": "telefono", "llegada_mt": "2026-01-26T00:00:00", "llegada__1": "21:35", "llegaron_a": "no", "llegada_ma": "1899-12-30T00:00:00", "llegada__2": null, "propiedad_": "privada", "tipo_bosqu": null, "area_plant": 0.0, "area_bosqu": 0.0, "pendiente_": 1.0, "topografia": null, "tipo_veget": null, "superficie": 0.0, "tipo_incen": "rastrero", "tecnicas_e": "ataque_directo", "control_fe": "2026-01-27T00:00:00", "control_ho": "01:30", "institucio": "bomberos,conap,particulares", "instituc_1": null, "liquidacio": "2026-01-27T00:00:00", "liquidac_1": "14:30", "causas_inc": "desconocida", "causas_otr": null, "observacio": null, "CreationDa": "2026-02-26T00:00:00", "Creator": null, "EditDate": "2026-02-26T00:00:00", "Editor": null }, "geometry": { "type": "Point", "coordinates": [ -91.12031623, 14.7160108 ] } },
{ "type": "Feature", "properties": { "globalid": "45638655-372c-4e29-ba12-5e3909152e94", "nombre_gua": "Diego Martín Ramírez Ixbalan", "region": "Altiplano Central", "area_prote": "rumcla", "area_pro_1": null, "departamen": "Solola", "municipio_": "Santiago Atitlán", "municipio": "Santiago Atitlán", "referencia": "Aldea Cerro de Oro", "aviso_fech": "2026-02-28T00:00:00", "aviso_hora": "01:30", "forma_avis": "telefono", "llegada_mt": "2026-02-28T00:00:00", "llegada__1": "15:30", "llegaron_a": "no", "llegada_ma": "1899-12-30T00:00:00", "llegada__2": null, "propiedad_": "privada", "tipo_bosqu": "bosque_natural", "area_plant": 0.0, "area_bosqu": 3.0, "pendiente_": 60.0, "topografia": "75 % impinado", "tipo_veget": "Pajarales", "superficie": 3.0, "tipo_incen": "rastrero", "tecnicas_e": "ataque_directo", "control_fe": "2026-02-28T00:00:00", "control_ho": "06:20", "institucio": "conap,conred,municipalidad", "instituc_1": null, "liquidacio": "2026-02-28T00:00:00", "liquidac_1": "18:20", "causas_inc": "desconocida", "causas_otr": null, "observacio": "En la hora de la tarde del dia sabado 28 de febrero recibimos una llamada del comicionado de medio ambiente sobre un incendio forestal en el lugar denominado cero de oro para combatir juntamente con los GR de la muni y conred comensamos 3.30 pm a 6.20 pm", "CreationDa": "2026-03-01T00:00:00", "Creator": null, "EditDate": "2026-03-01T00:00:00", "Editor": null }, "geometry": { "type": "Point", "coordinates": [ -91.17743526, 14.66414142 ] } },
{ "type": "Feature", "properties": { "globalid": "fbf7660f-655e-4e1a-a76e-4d37a12533dc", "nombre_gua": null, "region": "Altiplano Central", "area_prote": "rumcla", "area_pro_1": null, "departamen": "Solola", "municipio_": null, "municipio": "Nahuala", "referencia": "Chui Kulbal santo", "aviso_fech": "2026-03-01T00:00:00", "aviso_hora": "07:50", "forma_avis": "telefono", "llegada_mt": "2026-03-01T00:00:00", "llegada__1": "09:26", "llegaron_a": "no", "llegada_ma": "1899-12-30T00:00:00", "llegada__2": null, "propiedad_": "privada,estado", "tipo_bosqu": "bosque_natural", "area_plant": 0.0, "area_bosqu": 2.0, "pendiente_": 0.0, "topografia": null, "tipo_veget": null, "superficie": 2.0, "tipo_incen": "rastrero", "tecnicas_e": "ataque_directo,ataque_indirecto,control_natural", "control_fe": "2026-03-01T00:00:00", "control_ho": "10:54", "institucio": "conap,municipalidad,otro", "instituc_1": "Guardabosques", "liquidacio": "2026-03-01T00:00:00", "liquidac_1": "17:05", "causas_inc": "intencionales", "causas_otr": null, "observacio": null, "CreationDa": "2026-03-02T00:00:00", "Creator": null, "EditDate": "2026-03-02T00:00:00", "Editor": null }, "geometry": { "type": "Point", "coordinates": [ -91.29166167, 14.83563833 ] } },
{ "type": "Feature", "properties": { "globalid": "35176225-6204-4a48-bddd-c1d585212a56", "nombre_gua": "Bernabé López Sajvín", "region": "Altiplano Central", "area_prote": "rumcla", "area_pro_1": null, "departamen": "Solola", "municipio_": "Santa Catarina Palopó", "municipio": "Santa Catarina Palopó", "referencia": "Lugar denomindo Pichichiut, santa catarina palopo", "aviso_fech": "2026-03-02T00:00:00", "aviso_hora": "12:17", "forma_avis": "telefono", "llegada_mt": "2026-03-02T00:00:00", "llegada__1": "13:15", "llegaron_a": "no", "llegada_ma": "1899-12-30T00:00:00", "llegada__2": null, "propiedad_": "mixto", "tipo_bosqu": "bosque_natural", "area_plant": 0.0, "area_bosqu": 2.0, "pendiente_": 0.0, "topografia": null, "tipo_veget": null, "superficie": 3.0, "tipo_incen": "rastrero", "tecnicas_e": "ataque_directo", "control_fe": "2026-03-02T00:00:00", "control_ho": "18:20", "institucio": "conred,conap", "instituc_1": null, "liquidacio": "2026-03-03T00:00:00", "liquidac_1": "11:11", "causas_inc": "desconocida", "causas_otr": null, "observacio": "Se coordino con la conred y el compañero guarda de san andres para combatir y controlar el incendioel dia anterior y hoy se inspecciono y liquido por completo", "CreationDa": "2026-03-03T00:00:00", "Creator": null, "EditDate": "2026-03-03T00:00:00", "Editor": null }, "geometry": { "type": "Point", "coordinates": [ -91.13970405, 14.7279776 ] } },
{ "type": "Feature", "properties": { "globalid": "b6e1facd-8663-478c-af9a-67cbfbe57918", "nombre_gua": "Jose Octavio Xitamul Recinos", "region": "Altiplano Central", "area_prote": "rumcla", "area_pro_1": null, "departamen": "Solola", "municipio_": "San José Chacaya", "municipio": "San José Chacaya", "referencia": "Finca el molino", "aviso_fech": "2026-03-16T00:00:00", "aviso_hora": "07:05", "forma_avis": "telefono", "llegada_mt": "2026-03-16T00:00:00", "llegada__1": "07:35", "llegaron_a": "no", "llegada_ma": "1899-12-30T00:00:00", "llegada__2": null, "propiedad_": "privada", "tipo_bosqu": "bosque_natural", "area_plant": 0.0, "area_bosqu": 1.5, "pendiente_": 0.0, "topografia": null, "tipo_veget": null, "superficie": 1.5, "tipo_incen": "rastrero", "tecnicas_e": "ataque_directo", "control_fe": "2026-03-16T00:00:00", "control_ho": "10:55", "institucio": "conap,municipalidad,particulares", "instituc_1": null, "liquidacio": "2026-03-17T00:00:00", "liquidac_1": "11:00", "causas_inc": "colmeneros", "causas_otr": null, "observacio": "Dicho incendio fue a causa de tratar de extraer miel de una colmena introducida en un tronco de encino", "CreationDa": "2026-03-18T00:00:00", "Creator": null, "EditDate": "2026-03-18T00:00:00", "Editor": null }, "geometry": { "type": "Point", "coordinates": [ -91.21582333, 14.78114167 ] } },
{ "type": "Feature", "properties": { "globalid": "4c0c1eeb-bc50-4974-8fee-97e00d21c8fc", "nombre_gua": "José Manuel Vásquez Upún", "region": "Altiplano Central", "area_prote": "rumcla", "area_pro_1": null, "departamen": "Sololá", "municipio_": "San Andres Semetabaj", "municipio": "San Andres Semetabaj", "referencia": "Caserío Xejuyú Segundo", "aviso_fech": "2026-03-05T00:00:00", "aviso_hora": "14:25", "forma_avis": "personal", "llegada_mt": "2026-03-05T00:00:00", "llegada__1": "15:00", "llegaron_a": "no", "llegada_ma": "1899-12-30T00:00:00", "llegada__2": null, "propiedad_": "privada", "tipo_bosqu": "bosque_natural", "area_plant": 0.0, "area_bosqu": 1.0, "pendiente_": 0.0, "topografia": null, "tipo_veget": null, "superficie": 1.0, "tipo_incen": "rastrero", "tecnicas_e": "ataque_directo", "control_fe": "2026-03-05T00:00:00", "control_ho": "17:30", "institucio": "conap,bomberos,municipalidad", "instituc_1": null, "liquidacio": "2026-03-06T00:00:00", "liquidac_1": "10:30", "causas_inc": "desconocida", "causas_otr": null, "observacio": null, "CreationDa": "2026-03-25T00:00:00", "Creator": null, "EditDate": "2026-03-25T00:00:00", "Editor": null }, "geometry": { "type": "Point", "coordinates": [ -91.12781249, 14.74566589 ] } },
{ "type": "Feature", "properties": { "globalid": "aa422551-1504-44bb-a930-799a2bcabc84", "nombre_gua": "José Manuel Vásquez Upún", "region": "Altiplano Central", "area_prote": "rumcla", "area_pro_1": null, "departamen": "Sololá", "municipio_": "San Andres Semetabaj", "municipio": "San Andres Semetabaj", "referencia": "Barrio Tzanjay", "aviso_fech": "2026-03-05T00:00:00", "aviso_hora": null, "forma_avis": "personal", "llegada_mt": "2026-03-25T00:00:00", "llegada__1": "12:30", "llegaron_a": "no", "llegada_ma": "1899-12-30T00:00:00", "llegada__2": null, "propiedad_": "privada", "tipo_bosqu": "bosque_natural", "area_plant": 0.0, "area_bosqu": 0.0, "pendiente_": 0.0, "topografia": null, "tipo_veget": null, "superficie": 1.0, "tipo_incen": "rastrero", "tecnicas_e": "ataque_directo", "control_fe": "2026-03-05T00:00:00", "control_ho": "02:30", "institucio": "conap,municipalidad,bomberos,particulares", "instituc_1": null, "liquidacio": "2026-03-06T00:00:00", "liquidac_1": "08:30", "causas_inc": "desconocida", "causas_otr": null, "observacio": null, "CreationDa": "2026-03-25T00:00:00", "Creator": null, "EditDate": "2026-03-25T00:00:00", "Editor": null }, "geometry": { "type": "Point", "coordinates": [ -91.128229, 14.73763854 ] } },
{ "type": "Feature", "properties": { "globalid": "41425626-de0f-4495-9706-639320bdcf7c", "nombre_gua": "Santos Maurico Vicente Mendoza", "region": "Altiplano Central", "area_prote": "rumcla", "area_pro_1": null, "departamen": "Solola", "municipio_": "Santa Maria Visitación", "municipio": "Santa Maria Visitación", "referencia": "Pachali 1", "aviso_fech": "2026-03-01T00:00:00", "aviso_hora": "17:30", "forma_avis": "personal", "llegada_mt": "2026-03-02T00:00:00", "llegada__1": "09:00", "llegaron_a": "no", "llegada_ma": "1899-12-30T00:00:00", "llegada__2": null, "propiedad_": "privada", "tipo_bosqu": "bosque_natural", "area_plant": 0.0, "area_bosqu": 1.5, "pendiente_": 0.0, "topografia": null, "tipo_veget": null, "superficie": 1.5, "tipo_incen": "rastrero", "tecnicas_e": "ataque_directo", "control_fe": "2026-03-02T00:00:00", "control_ho": "12:00", "institucio": "conap,municipalidad,otro,bomberos", "instituc_1": "Bomberos Municipales y Policia Municipal", "liquidacio": "2026-03-02T00:00:00", "liquidac_1": "02:00", "causas_inc": "desconocida", "causas_otr": null, "observacio": null, "CreationDa": "2026-03-26T00:00:00", "Creator": null, "EditDate": "2026-03-26T00:00:00", "Editor": null }, "geometry": { "type": "Point", "coordinates": [ -91.323553, 14.724314 ] } },
{ "type": "Feature", "properties": { "globalid": "099a1129-39e0-4de6-9f9b-dae09543f2b0", "nombre_gua": "Heriberto Chavez Chavez", "region": "Altiplano Central", "area_prote": "rumcla", "area_pro_1": null, "departamen": "Sololá", "municipio_": "Sololá", "municipio": "Sololá", "referencia": "Caserio Xolbe el Tablon Sololá", "aviso_fech": "2026-03-04T00:00:00", "aviso_hora": "08:15", "forma_avis": "telefono", "llegada_mt": "2026-03-04T00:00:00", "llegada__1": "09:42", "llegaron_a": "no", "llegada_ma": "1899-12-30T00:00:00", "llegada__2": null, "propiedad_": "privada", "tipo_bosqu": "bosque_natural", "area_plant": 0.0, "area_bosqu": 3.0, "pendiente_": 0.0, "topografia": null, "tipo_veget": null, "superficie": 0.0, "tipo_incen": "rastrero", "tecnicas_e": "ataque_directo", "control_fe": "2026-03-04T00:00:00", "control_ho": null, "institucio": "conap,conred", "instituc_1": null, "liquidacio": "1899-12-30T00:00:00", "liquidac_1": null, "causas_inc": "intencionales", "causas_otr": null, "observacio": null, "CreationDa": "2026-04-13T00:00:00", "Creator": null, "EditDate": "2026-04-13T00:00:00", "Editor": null }, "geometry": { "type": "Point", "coordinates": [ -91.19136333, 14.79030167 ] } },
{ "type": "Feature", "properties": { "globalid": "834eb4e1-b4d0-4955-a4a2-95ab291c7cd8", "nombre_gua": null, "region": "Altiplano Central", "area_prote": "rumcla", "area_pro_1": null, "departamen": "Sololá", "municipio_": null, "municipio": "Sololá", "referencia": "Tierra linda sacsiguan", "aviso_fech": "2026-03-04T00:00:00", "aviso_hora": "14:00", "forma_avis": "telefono", "llegada_mt": "2026-03-04T00:00:00", "llegada__1": "14:32", "llegaron_a": "no", "llegada_ma": "1899-12-30T00:00:00", "llegada__2": null, "propiedad_": "privada", "tipo_bosqu": null, "area_plant": 0.0, "area_bosqu": 0.0, "pendiente_": 0.0, "topografia": null, "tipo_veget": null, "superficie": 2.0, "tipo_incen": "rastrero", "tecnicas_e": null, "control_fe": "2026-03-04T00:00:00", "control_ho": "14:37", "institucio": "conap,conred", "instituc_1": null, "liquidacio": "2026-03-04T00:00:00", "liquidac_1": "14:37", "causas_inc": "intencionales", "causas_otr": null, "observacio": null, "CreationDa": "2026-04-13T00:00:00", "Creator": null, "EditDate": "2026-04-13T00:00:00", "Editor": null }, "geometry": { "type": "Point", "coordinates": [ -91.15369, 14.75766833 ] } },
{ "type": "Feature", "properties": { "globalid": "60ed7a8e-e7b5-43d1-85fe-682316f046a2", "nombre_gua": "Manuel Guarcas Calel", "region": "Altiplano Central", "area_prote": "rumcla", "area_pro_1": null, "departamen": "solola", "municipio_": "Santa Cruz La Laguna", "municipio": "Santa Cruz La Lagunacaserill", "referencia": "caserillo Jaibalito Santa Cruz la Laguna Solola", "aviso_fech": "2026-05-05T00:00:00", "aviso_hora": "09:38", "forma_avis": "telefono", "llegada_mt": "2026-05-06T00:00:00", "llegada__1": "12:30", "llegaron_a": "no", "llegada_ma": "1899-12-30T00:00:00", "llegada__2": null, "propiedad_": "privada", "tipo_bosqu": "bosque_natural", "area_plant": 0.0, "area_bosqu": 1.5, "pendiente_": 0.0, "topografia": null, "tipo_veget": null, "superficie": 1.5, "tipo_incen": "rastrero", "tecnicas_e": "ataque_directo", "control_fe": "2026-05-05T00:00:00", "control_ho": "14:30", "institucio": "conap,conred,municipalidad,particulares", "instituc_1": null, "liquidacio": "2026-05-06T00:00:00", "liquidac_1": "11:45", "causas_inc": "desconocida", "causas_otr": null, "observacio": "el area quemada cuenta con algunos arboles,lo que mas se quemo fue pajonal y pastizal,y lo que no se quemo fue en la parte alta y sus alrededores que cuenta con arboles grandes· fue", "CreationDa": "2026-05-06T00:00:00", "Creator": null, "EditDate": "2026-05-06T00:00:00", "Editor": null }, "geometry": { "type": "Point", "coordinates": [ -91.22166333, 14.74333333 ] } },
{ "type": "Feature", "properties": { "globalid": "5c8dbd09-810f-40c6-9361-e629a7e3e5b5", "nombre_gua": "Vicente Francisco Omar Pérez Cox", "region": "Altiplano Central", "area_prote": "rumcla", "area_pro_1": null, "departamen": "Solola", "municipio_": "Santa Maria Visitación", "municipio": "San juan la laguna", "referencia": "Abajo de la nariz del indiob", "aviso_fech": "2026-07-22T00:00:00", "aviso_hora": "13:58", "forma_avis": "personal", "llegada_mt": "2026-07-29T00:00:00", "llegada__1": "13:58", "llegaron_a": "no", "llegada_ma": "1899-12-30T00:00:00", "llegada__2": null, "propiedad_": "privada", "tipo_bosqu": "bosque_natural,plantacion", "area_plant": 4.0, "area_bosqu": 4.0, "pendiente_": 0.0, "topografia": null, "tipo_veget": null, "superficie": 0.0, "tipo_incen": "rastrero", "tecnicas_e": "ataque_directo", "control_fe": "2026-07-22T00:00:00", "control_ho": "15:00", "institucio": "conap,municipalidad", "instituc_1": null, "liquidacio": "2026-07-22T00:00:00", "liquidac_1": "17:00", "causas_inc": "desconocida", "causas_otr": null, "observacio": null, "CreationDa": "2026-07-27T00:00:00", "Creator": null, "EditDate": "2026-07-27T00:00:00", "Editor": null }, "geometry": { "type": "Point", "coordinates": [ -91.29649833, 14.703795 ] } },
{ "type": "Feature", "properties": { "globalid": "da2bb3a2-52eb-445a-a4fa-55773c874de8", "nombre_gua": "Carlos Eliberto Chiroy", "region": "Altiplano Central", "area_prote": "rumcla", "area_pro_1": null, "departamen": "Sololá", "municipio_": "San Lucas Tolimán", "municipio": "San Lucas Tolimán", "referencia": "Faldas del Volcan Atitlan Finca Santa Teresa", "aviso_fech": "2026-07-22T00:00:00", "aviso_hora": "06:49", "forma_avis": "redes", "llegada_mt": "2026-07-09T00:00:00", "llegada__1": "10:49", "llegaron_a": "no", "llegada_ma": "1899-12-30T00:00:00", "llegada__2": null, "propiedad_": "municipal", "tipo_bosqu": "bosque_natural", "area_plant": 0.0, "area_bosqu": 0.06, "pendiente_": 0.0, "topografia": null, "tipo_veget": null, "superficie": 0.0, "tipo_incen": "rastrero", "tecnicas_e": "control_natural", "control_fe": "2026-07-09T00:00:00", "control_ho": "10:50", "institucio": "conap,otro", "instituc_1": "Epecista de la Asociacion de Reservas Naturales", "liquidacio": "2026-07-09T00:00:00", "liquidac_1": "10:50", "causas_inc": "causa_natural", "causas_otr": null, "observacio": null, "CreationDa": "2026-07-27T00:00:00", "Creator": null, "EditDate": "2026-07-27T00:00:00", "Editor": null }, "geometry": { "type": "Point", "coordinates": [ -91.15755333, 14.56827833 ] } },
{ "type": "Feature", "properties": { "globalid": "39f23e0a-83b7-4e33-a8e8-e64c96979e2e", "nombre_gua": "Carlos Eliberto Chiroy", "region": "Altiplano Central", "area_prote": "rumcla", "area_pro_1": null, "departamen": "Solola", "municipio_": "San Lucas Tolimán", "municipio": "San Lucas Tolimán", "referencia": "Colonia san Gregorio area de la Cumbre", "aviso_fech": "2026-07-09T00:00:00", "aviso_hora": "19:02", "forma_avis": "redes", "llegada_mt": "2026-07-09T00:00:00", "llegada__1": "19:18", "llegaron_a": "no", "llegada_ma": "1899-12-30T00:00:00", "llegada__2": null, "propiedad_": "privada", "tipo_bosqu": "plantacion", "area_plant": 0.01, "area_bosqu": 0.0, "pendiente_": 0.0, "topografia": null, "tipo_veget": null, "superficie": 0.01, "tipo_incen": "rastrero", "tecnicas_e": "ataque_directo", "control_fe": "2026-07-09T00:00:00", "control_ho": "20:13", "institucio": "otro", "instituc_1": "COMRED", "liquidacio": "2026-07-09T00:00:00", "liquidac_1": "21:00", "causas_inc": "quema_basura", "causas_otr": null, "observacio": null, "CreationDa": "2026-07-27T00:00:00", "Creator": null, "EditDate": "2026-07-27T00:00:00", "Editor": null }, "geometry": { "type": "Point", "coordinates": [ -91.13938333, 14.62994167 ] } },
{ "type": "Feature", "properties": { "globalid": "4496aac0-7222-4b58-8d87-c56b54c2cbbe", "nombre_gua": null, "region": "Altiplano Central", "area_prote": "rumcla", "area_pro_1": null, "departamen": null, "municipio_": null, "municipio": null, "referencia": null, "aviso_fech": "1899-12-30T00:00:00", "aviso_hora": null, "forma_avis": null, "llegada_mt": "1899-12-30T00:00:00", "llegada__1": null, "llegaron_a": null, "llegada_ma": "1899-12-30T00:00:00", "llegada__2": null, "propiedad_": null, "tipo_bosqu": null, "area_plant": 0.0, "area_bosqu": 0.0, "pendiente_": 0.0, "topografia": null, "tipo_veget": null, "superficie": 0.0, "tipo_incen": null, "tecnicas_e": null, "control_fe": "1899-12-30T00:00:00", "control_ho": null, "institucio": null, "instituc_1": null, "liquidacio": "1899-12-30T00:00:00", "liquidac_1": null, "causas_inc": null, "causas_otr": null, "observacio": null, "CreationDa": "2026-08-04T00:00:00", "Creator": null, "EditDate": "2026-08-04T00:00:00", "Editor": null }, "geometry": { "type": "Point", "coordinates": [ -91.31339127, 14.6810778 ] } },
{ "type": "Feature", "properties": { "globalid": "639f9ba8-b1bc-44a7-84a5-8cb0374f75ed", "nombre_gua": "Juan Esdras Ajpacaja Saloj", "region": "Altiplano Central", "area_prote": "rumcla", "area_pro_1": null, "departamen": "Solola", "municipio_": "San Juan La Laguna", "municipio": "San Juan La Laguna", "referencia": "Chocristalin", "aviso_fech": "2026-07-22T00:00:00", "aviso_hora": "12:42", "forma_avis": "redes,telefono", "llegada_mt": "2026-07-22T00:00:00", "llegada__1": "13:43", "llegaron_a": null, "llegada_ma": "1899-12-30T00:00:00", "llegada__2": null, "propiedad_": null, "tipo_bosqu": null, "area_plant": 0.0, "area_bosqu": 0.0, "pendiente_": 0.0, "topografia": null, "tipo_veget": null, "superficie": 0.0, "tipo_incen": null, "tecnicas_e": null, "control_fe": "1899-12-30T00:00:00", "control_ho": null, "institucio": null, "instituc_1": null, "liquidacio": "1899-12-30T00:00:00", "liquidac_1": null, "causas_inc": null, "causas_otr": null, "observacio": null, "CreationDa": "2026-08-04T00:00:00", "Creator": null, "EditDate": "2026-08-04T00:00:00", "Editor": null }, "geometry": { "type": "Point", "coordinates": [ -91.29590282, 14.70312783 ] } },
{ "type": "Feature", "properties": { "globalid": "f99eba95-8454-4c3e-9999-7c0427656dc0", "nombre_gua": "Juan Esdras Ajpacaja Saloj", "region": "Altiplano Central", "area_prote": "rumcla", "area_pro_1": null, "departamen": "Solola", "municipio_": "San Juan La Laguna", "municipio": "San Juan La Laguna", "referencia": "Cerca calle la Paz", "aviso_fech": "2026-08-10T00:00:00", "aviso_hora": "11:20", "forma_avis": "telefono", "llegada_mt": "2026-02-05T00:00:00", "llegada__1": "14:57", "llegaron_a": "no", "llegada_ma": "1899-12-30T00:00:00", "llegada__2": null, "propiedad_": "estado", "tipo_bosqu": "plantacion", "area_plant": 0.0, "area_bosqu": 0.0, "pendiente_": 0.0, "topografia": "Plano", "tipo_veget": "Tul", "superficie": 20.0, "tipo_incen": null, "tecnicas_e": null, "control_fe": "2026-02-05T00:00:00", "control_ho": null, "institucio": "conap,municipalidad,otro", "instituc_1": "Amsclae", "liquidacio": "2026-02-05T00:00:00", "liquidac_1": null, "causas_inc": null, "causas_otr": null, "observacio": "Ninguna", "CreationDa": "2026-08-11T00:00:00", "Creator": null, "EditDate": "2026-08-11T00:00:00", "Editor": null }, "geometry": { "type": "Point", "coordinates": [ -91.28373534, 14.69794284 ] } },
{ "type": "Feature", "properties": { "globalid": "a77190a7-8217-41b5-bb12-de55a3f1f477", "nombre_gua": "Elvis Omar Garcia Andrade", "region": "Altiplano Central", "area_prote": "rumcla", "area_pro_1": null, "departamen": "Sololá", "municipio_": "San Andrés Semetabaj", "municipio": "San Andrés Semetabaj", "referencia": "Casrerio Choquec", "aviso_fech": "2026-09-16T00:00:00", "aviso_hora": "21:00", "forma_avis": "personal,telefono", "llegada_mt": "2026-09-16T00:00:00", "llegada__1": "09:06", "llegaron_a": "no", "llegada_ma": "1899-12-30T00:00:00", "llegada__2": null, "propiedad_": "estado", "tipo_bosqu": "bosque_natural", "area_plant": 0.0, "area_bosqu": 12.0, "pendiente_": 0.0, "topografia": null, "tipo_veget": null, "superficie": 12.0, "tipo_incen": "rastrero,copas,subterraneo", "tecnicas_e": "ataque_directo", "control_fe": "2026-09-16T00:00:00", "control_ho": "09:07", "institucio": "conap,conred,inab,bomberos,pnc,particulares", "instituc_1": null, "liquidacio": "1899-12-30T00:00:00", "liquidac_1": null, "causas_inc": "quemas_agricolas", "causas_otr": null, "observacio": null, "CreationDa": "2026-09-17T00:00:00", "Creator": null, "EditDate": "2026-09-17T00:00:00", "Editor": null }, "geometry": { "type": "Point", "coordinates": [ -91.10931161, 14.73194961 ] } },
{ "type": "Feature", "properties": { "globalid": "a3eb597d-c99b-443f-981a-507f73045a36", "nombre_gua": "Carlos Eliberto Chiroy", "region": "Altiplano Central", "area_prote": "rumcla", "area_pro_1": null, "departamen": "Solola", "municipio_": "San Lucas Tolimán", "municipio": "San Lucas Tolimán", "referencia": "Cerro iquitiu Colindacia entre finca pampojila, san lucas toliman", "aviso_fech": "2026-08-19T00:00:00", "aviso_hora": "18:37", "forma_avis": "telefono", "llegada_mt": "2026-08-19T00:00:00", "llegada__1": "20:20", "llegaron_a": "no", "llegada_ma": "1899-12-30T00:00:00", "llegada__2": null, "propiedad_": "mixto", "tipo_bosqu": "bosque_natural", "area_plant": 0.0, "area_bosqu": 0.07, "pendiente_": 0.0, "topografia": null, "tipo_veget": null, "superficie": 0.07, "tipo_incen": "rastrero,copas", "tecnicas_e": "ataque_directo", "control_fe": "2026-08-20T00:00:00", "control_ho": "12:30", "institucio": "conap,conred,municipalidad,otro", "instituc_1": "Trabajadores de la Finca Pampojila", "liquidacio": "2026-08-24T00:00:00", "liquidac_1": "07:00", "causas_inc": "causa_natural", "causas_otr": null, "observacio": "Aparentemente el fuego fue causado por un rayo que impacto sobre un arbol", "CreationDa": "2026-09-24T00:00:00", "Creator": null, "EditDate": "2026-09-24T00:00:00", "Editor": null }, "geometry": { "type": "Point", "coordinates": [ -91.12695167, 14.61992667 ] } }
]
}
