{
"type": "FeatureCollection",
"name": "patrullajes_incidentes",
"xy_coordinate_resolution": 1e-08,
"features": [
{ "type": "Feature", "properties": { "globalid": "e7c18042-e27d-4a61-afb5-6ad378b847c8", "inc_tipo": "quema", "inc_descri": "Se observo himo en el lugar conocido como Isla Tzamtem, Pachitulul  en el cual al hablar el encargado Juan Gomez indico que en el lugar se estaba quemando ramas secas y espinas", "parentglob": "eb08b584-9d70-49d8-a130-f086e5384800", "CreationDa": "2026-02-21T00:00:00", "Creator": null, "EditDate": "2026-02-21T00:00:00", "Editor": null }, "geometry": { "type": "Point", "coordinates": [ -91.15108333, 14.65861111 ] } },
{ "type": "Feature", "properties": { "globalid": "833b8d61-dcf0-41a1-8a1e-aab62f9533d1", "inc_tipo": "quema", "inc_descri": "Se logro ubicar el lugar donde se observo humo confirmando que se trataba de un incendio el cual se origino por una quema agricola", "parentglob": "f8ac1f0b-78e4-41f8-ae0c-af26e059e49c", "CreationDa": "2026-02-23T00:00:00", "Creator": null, "EditDate": "2026-02-23T00:00:00", "Editor": null }, "geometry": { "type": "Point", "coordinates": [ -91.15711111, 14.59386111 ] } },
{ "type": "Feature", "properties": { "globalid": "98d9c1b3-354d-4431-89a2-63662a11fc55", "inc_tipo": "desechos", "inc_descri": "Ubicacion de basurero clandestino", "parentglob": "3c136329-a747-4461-8737-4f2d2a2bd2e3", "CreationDa": "2026-02-23T00:00:00", "Creator": null, "EditDate": "2026-02-23T00:00:00", "Editor": null }, "geometry": { "type": "Point", "coordinates": [ -91.15342, 14.61849 ] } },
{ "type": "Feature", "properties": { "globalid": "34d4231e-8c60-4b11-b509-87e3d8ee01b2", "inc_tipo": "tala_ilegal", "inc_descri": "Se encontro una tala de un pino pero no se encontro al responsable", "parentglob": "c376cf3c-bd6d-48cf-9f0d-12f0601c24da", "CreationDa": "2026-02-24T00:00:00", "Creator": null, "EditDate": "2026-02-24T00:00:00", "Editor": null }, "geometry": { "type": "Point", "coordinates": [ -91.255335, 14.80201 ] } },
{ "type": "Feature", "properties": { "globalid": "6372f140-4b48-41c8-9af1-1652aab7b89e", "inc_tipo": "tala_ilegal", "inc_descri": "Se encontró madera y leña en el lugar. Al parecer unos 3 arboles de pino son los que han talado.", "parentglob": "05eb1f43-bdef-4f1f-a958-ad6db4a093e7", "CreationDa": "2026-02-25T00:00:00", "Creator": null, "EditDate": "2026-02-25T00:00:00", "Editor": null }, "geometry": { "type": "Point", "coordinates": [ -91.10888317, 14.72021194 ] } },
{ "type": "Feature", "properties": { "globalid": "d6a20b3f-97a8-46e8-8ea5-e769140eaa36", "inc_tipo": "tala_ilegal", "inc_descri": "Se observo una tala ilicita en el lugar llamado xecruz", "parentglob": "5842ca67-1049-4052-8291-ac42252fbfd8", "CreationDa": "2026-03-02T00:00:00", "Creator": null, "EditDate": "2026-03-02T00:00:00", "Editor": null }, "geometry": { "type": "Point", "coordinates": [ -91.27381148, 14.69056579 ] } },
{ "type": "Feature", "properties": { "globalid": "7fdb7de5-41c3-42c7-af31-41fcfdc707b3", "inc_tipo": "tala_ilegal", "inc_descri": "Se encontro 5 arboles de cipres talodos pero no se encontro a ningun responsable", "parentglob": "24c4ba13-7609-49ad-90cd-6363c0df943a", "CreationDa": "2026-03-11T00:00:00", "Creator": null, "EditDate": "2026-03-11T00:00:00", "Editor": null }, "geometry": { "type": "Point", "coordinates": [ -91.26414833, 14.728715 ] } },
{ "type": "Feature", "properties": { "globalid": "f41aef5b-5d23-4f83-8657-a9c31cccd37d", "inc_tipo": "tala_ilegal", "inc_descri": null, "parentglob": "44e81ca3-09da-4ca4-994c-8021a21e0816", "CreationDa": "2026-03-29T00:00:00", "Creator": null, "EditDate": "2026-03-29T00:00:00", "Editor": null }, "geometry": { "type": "Point", "coordinates": [ -91.27130091, 14.68957194 ] } },
{ "type": "Feature", "properties": { "globalid": "61709230-fbae-4c8e-b8bd-35a1ea726e80", "inc_tipo": "otro", "inc_descri": "Realizamos el Operativo de Control y Vigilancia en el área de Xe' B'olkaan, Santiago Atitlán donde logramos consignar una motosierra marca STIHL, el dueño de la motosierra huyó. Luego fuimos al MP para respectiva declaración y entrega de la motosier", "parentglob": "4d340069-41fe-4f53-92d1-ac5bb0444966", "CreationDa": "2026-04-13T00:00:00", "Creator": null, "EditDate": "2026-04-13T00:00:00", "Editor": null }, "geometry": { "type": "Point", "coordinates": [ -91.20770139, 14.60013389 ] } },
{ "type": "Feature", "properties": { "globalid": "fe289138-be23-4541-9217-ceec04d59186", "inc_tipo": "tala_ilegal", "inc_descri": "Se encontro un arbol talado,y no se contro el responsable", "parentglob": "c5dcccac-59ca-4f0a-b7e1-8c085891224e", "CreationDa": "2026-04-29T00:00:00", "Creator": null, "EditDate": "2026-04-29T00:00:00", "Editor": null }, "geometry": { "type": "Point", "coordinates": [ -91.31677054, 14.72811947 ] } },
{ "type": "Feature", "properties": { "globalid": "d7cd22f0-f584-4e7b-9e0a-c6607c1fa7b7", "inc_tipo": "tala_ilegal", "inc_descri": "El día de hoy se registró una tala ilegal de la especie de aguacate", "parentglob": "2ce13d5d-87f3-4421-b3bd-e1e9a180dc87", "CreationDa": "2026-05-04T00:00:00", "Creator": null, "EditDate": "2026-05-04T00:00:00", "Editor": null }, "geometry": { "type": "Point", "coordinates": [ -91.32255063, 14.68511704 ] } },
{ "type": "Feature", "properties": { "globalid": "1640cc19-688e-4e14-a69d-39b724774605", "inc_tipo": "otro", "inc_descri": "Leñas secas  jateadas pero no hay ningun responsable,", "parentglob": "b27db8db-2116-4080-b1a2-8451ad8140bf", "CreationDa": "2026-05-11T00:00:00", "Creator": null, "EditDate": "2026-05-11T00:00:00", "Editor": null }, "geometry": { "type": "Point", "coordinates": [ -91.33191263, 14.68340421 ] } },
{ "type": "Feature", "properties": { "globalid": "fc0b4ed8-469d-414e-9ef2-17dd2bb89ad2", "inc_tipo": "tala_ilegal", "inc_descri": "Durante el Patrullaje encontre una tala de un arbol y el desrame de otro de la especie gravilea", "parentglob": "2c2463ce-5a75-4bd6-8890-970eb13e6f95", "CreationDa": "2026-05-12T00:00:00", "Creator": null, "EditDate": "2026-05-12T00:00:00", "Editor": null }, "geometry": { "type": "Point", "coordinates": [ -91.1482153, 14.73596698 ] } },
{ "type": "Feature", "properties": { "globalid": "7d377a5b-1ca7-4c9f-bd30-8b28500646e5", "inc_tipo": "desechos,tala_ilegal,invasion_tierras", "inc_descri": "Se realizo un monitoreo en el volcan acatenago en el area de las cabañas y se observo un basurero clandestino y tala de arboles y preparacion de suelos para nuevas caballas que son ilegales", "parentglob": "8ebbe0e4-ceac-4fc3-99c1-65d57ce80233", "CreationDa": "2026-06-18T00:00:00", "Creator": null, "EditDate": "2026-06-18T00:00:00", "Editor": null }, "geometry": { "type": "Point", "coordinates": [ -90.87967833, 14.49726 ] } },
{ "type": "Feature", "properties": { "globalid": "043fb7ea-dded-4276-bce4-9eb6c0d64fd9", "inc_tipo": "tala_ilegal", "inc_descri": "Entre Godinez y las Canoas se dio un avistamiento en el cual se observó que habían talado sin ningún permiso varios árboles de ciprés y pino. Por lo que se empezó a investigar al propietario y ver si contaba con licencias, a la cual es negativo", "parentglob": "924a3846-204d-45a5-b1b1-0b80bc52dc39", "CreationDa": "2026-06-26T00:00:00", "Creator": null, "EditDate": "2026-06-26T00:00:00", "Editor": null }, "geometry": { "type": "Point", "coordinates": [ -91.09566054, 14.7095498 ] } },
{ "type": "Feature", "properties": { "globalid": "a6bb1ba3-8092-4225-a8c1-3f3e3402a693", "inc_tipo": "desechos", "inc_descri": "Se encontro desechos/basura, no se encontro con el responsable", "parentglob": "88a54eae-f3aa-435b-9397-dd3e967e0b63", "CreationDa": "2026-07-09T00:00:00", "Creator": null, "EditDate": "2026-07-09T00:00:00", "Editor": null }, "geometry": { "type": "Point", "coordinates": [ -90.82587, 14.56772667 ] } },
{ "type": "Feature", "properties": { "globalid": "d74826d6-6234-4189-a897-6b6a680a403c", "inc_tipo": "otro,invasion_tierras", "inc_descri": "Se pudo observar que se introdujo maquinaria pesada que hubo remosion de tierra aparentemente para hacer un camino en un area afectafa aproximada de 8x10m tambiem se observaron 5 tocones secos podridos removidos a un costado de la carretera", "parentglob": "d8ad55e6-d81b-4f35-ae8c-09c311f533fe", "CreationDa": "2026-07-19T00:00:00", "Creator": null, "EditDate": "2026-07-19T00:00:00", "Editor": null }, "geometry": { "type": "Point", "coordinates": [ -91.14812167, 14.61947667 ] } },
{ "type": "Feature", "properties": { "globalid": "5f841876-27a1-45f1-9473-4098f3e2d3f3", "inc_tipo": "otro", "inc_descri": "Movimiento de tierra y piedra en la orilla de la carretera que conduce de San Pablo a San Marcos, en Xepotrelo", "parentglob": "462fa65a-0e67-4f79-8739-1bb7a26a31d5", "CreationDa": "2026-07-22T00:00:00", "Creator": null, "EditDate": "2026-07-22T00:00:00", "Editor": null }, "geometry": { "type": "Point", "coordinates": [ -91.266385, 14.723065 ] } },
{ "type": "Feature", "properties": { "globalid": "d4efbf8f-e653-46bb-811e-13fdbb4a0b85", "inc_tipo": "otro", "inc_descri": "Remocion de tierra y expocicion de aguas reciduales provenientes de los lavaderos ubicado en el barrio el relleno.", "parentglob": "2a2740f4-36c6-4838-84b4-9adffb6305af", "CreationDa": "2026-07-23T00:00:00", "Creator": null, "EditDate": "2026-07-23T00:00:00", "Editor": null }, "geometry": { "type": "Point", "coordinates": [ -91.13963667, 14.634645 ] } },
{ "type": "Feature", "properties": { "globalid": "73cec8f1-bf49-4ea9-b3fa-de6e346f5568", "inc_tipo": "extraccion_recursos", "inc_descri": "Extraccion de roca o piedra. Esta actividad se realizo en coordinacion con el CONAP Y DIPRONA", "parentglob": "72584640-eaf8-4afb-9c1b-a047703d7992", "CreationDa": "2026-07-24T00:00:00", "Creator": null, "EditDate": "2026-07-24T00:00:00", "Editor": null }, "geometry": { "type": "Point", "coordinates": [ -91.26638833, 14.72306333 ] } },
{ "type": "Feature", "properties": { "globalid": "b37ce224-9496-46a8-a184-27b72b3c5534", "inc_tipo": "desechos", "inc_descri": "Basura", "parentglob": "4475dffc-c0a6-4bc0-a613-1fd477c955b2", "CreationDa": "2026-07-24T00:00:00", "Creator": null, "EditDate": "2026-07-24T00:00:00", "Editor": null }, "geometry": { "type": "Point", "coordinates": [ -90.82328333, 14.56678333 ] } },
{ "type": "Feature", "properties": { "globalid": "33f9007b-2659-4dde-8eed-3a352b0d606f", "inc_tipo": "tala_ilegal", "inc_descri": "Tala ilegal de un arbol joven de taxisxo", "parentglob": "8ba31f18-57b6-49e1-9391-356983fbdb2f", "CreationDa": "2026-07-27T00:00:00", "Creator": null, "EditDate": "2026-07-27T00:00:00", "Editor": null }, "geometry": { "type": "Point", "coordinates": [ -90.83346667, 14.56609167 ] } },
{ "type": "Feature", "properties": { "globalid": "3e7b317d-4fe2-4a48-8e93-88f73a8ada65", "inc_tipo": "tala_ilegal", "inc_descri": "Talaron  8 arboles de ilamo aliso en Predio comunitario", "parentglob": "4cc58120-32b2-40b3-831c-befcc1033603", "CreationDa": "2026-07-29T00:00:00", "Creator": null, "EditDate": "2026-07-29T00:00:00", "Editor": null }, "geometry": { "type": "Point", "coordinates": [ -91.31631732, 14.66642629 ] } },
{ "type": "Feature", "properties": { "globalid": "078cccfb-7fb0-4c3a-ab1b-822bc3cece3e", "inc_tipo": "tala_ilegal", "inc_descri": "Tala de arboles jovenes", "parentglob": "895fa543-307d-4960-865a-e9aaef6e8917", "CreationDa": "2026-08-19T00:00:00", "Creator": null, "EditDate": "2026-08-19T00:00:00", "Editor": null }, "geometry": { "type": "Point", "coordinates": [ -90.850735, 14.56430167 ] } },
{ "type": "Feature", "properties": { "globalid": "73739058-e08a-4659-86ad-c80b1dd8880d", "inc_tipo": "tala_ilegal", "inc_descri": "Tala de un arbol de cerezo de montaña", "parentglob": "0c5a35f3-0e8e-4fff-96a6-c12b0e006138", "CreationDa": "2026-08-20T00:00:00", "Creator": null, "EditDate": "2026-08-20T00:00:00", "Editor": null }, "geometry": { "type": "Point", "coordinates": [ -90.85322, 14.56698 ] } },
{ "type": "Feature", "properties": { "globalid": "1ca7564a-d42c-44aa-a705-c18d87260090", "inc_tipo": "tala_ilegal", "inc_descri": "El día de hoy se realizó un patrullaje de control y vigilancia en el área protegida de Sa Quiché en el cual pues encontraron tocones de pino", "parentglob": "0cf5fe4e-8cfa-4b7a-b4c9-8b85404f9e0c", "CreationDa": "2026-08-24T00:00:00", "Creator": null, "EditDate": "2026-08-24T00:00:00", "Editor": null }, "geometry": { "type": "Point", "coordinates": [ -91.11916984, 14.72650368 ] } },
{ "type": "Feature", "properties": { "globalid": "22c1a819-0fda-4a2a-8478-546a6fc0d6ff", "inc_tipo": "tala_ilegal", "inc_descri": null, "parentglob": "343e75e3-1565-458e-935a-f21840d5211e", "CreationDa": "2026-08-25T00:00:00", "Creator": null, "EditDate": "2026-08-25T00:00:00", "Editor": null }, "geometry": { "type": "Point", "coordinates": [ -91.31639833, 14.66642833 ] } },
{ "type": "Feature", "properties": { "globalid": "b6ec2a29-7e7d-4d64-9663-7fdfaf0deec4", "inc_tipo": "tala_ilegal", "inc_descri": "Tocones de aliso", "parentglob": "3566a083-2aed-4cb8-a711-bd38b4b402d7", "CreationDa": "2026-08-26T00:00:00", "Creator": null, "EditDate": "2026-08-26T00:00:00", "Editor": null }, "geometry": { "type": "Point", "coordinates": [ -91.33019167, 14.71014333 ] } }
]
}
